{"type":"FeatureCollection","features":[{"type":"Feature","properties":{"role":"correction-and-triangle-guard","guardMetres":8.0},"geometry":{"type":"MultiPolygon","coordinates":[[[[-7977.413029668566,-8073.0],[-7980.0,-8073.0],[-7980.784137122637,-8072.961477813377],[-7981.560722576129,-8072.846282243226],[-7982.322277418036,-8072.655522685857],[-7983.061467458921,-8072.39103626009],[-7983.771173894608,-8072.0553701147865],[-7984.444561864157,-8071.65175689842],[-7985.075146273309,-8071.184083626902],[-7985.656854249492,-8070.656854249492],[-7986.184083626902,-8070.075146273309],[-7986.65175689842,-8069.444561864157],[-7987.0553701147865,-8068.771173894608],[-7987.39103626009,-8068.061467458921],[-7987.655522685857,-8067.322277418036],[-7987.846282243226,-8066.560722576129],[-7987.961477813377,-8065.784137122637],[-7988.0,-8065.0],[-7988.0,-8055.0],[-7987.961477813377,-8054.215862877363],[-7987.846282243226,-8053.439277423871],[-7987.655522685857,-8052.677722581964],[-7987.39103626009,-8051.938532541079],[-7987.0553701147865,-8051.228826105392],[-7986.65175689842,-8050.555438135843],[-7986.184083626902,-8049.924853726691],[-7985.656854249492,-8049.343145750508],[-7985.075146273309,-8048.815916373098],[-7984.444561864157,-8048.34824310158],[-7983.771173894608,-8047.9446298852135],[-7983.061467458921,-8047.60896373991],[-7982.322277418036,-8047.344477314143],[-7981.560722576129,-8047.153717756774],[-7980.784137122637,-8047.038522186623],[-7980.0,-8047.0],[-7970.0,-8047.0],[-7969.215862877363,-8047.038522186623],[-7968.439277423871,-8047.153717756774],[-7967.677722581964,-8047.344477314143],[-7966.938532541079,-8047.60896373991],[-7966.228826105392,-8047.9446298852135],[-7965.555438135843,-8048.34824310158],[-7964.924853726691,-8048.815916373098],[-7964.343145750508,-8049.343145750508],[-7963.815916373098,-8049.924853726691],[-7963.34824310158,-8050.555438135843],[-7962.9446298852135,-8051.228826105392],[-7962.60896373991,-8051.938532541079],[-7962.586970331434,-8052.0],[-7955.0,-8052.0],[-7954.215862877363,-8052.038522186623],[-7953.439277423871,-8052.153717756774],[-7952.677722581964,-8052.344477314143],[-7951.938532541079,-8052.60896373991],[-7951.228826105392,-8052.9446298852135],[-7950.555438135843,-8053.34824310158],[-7949.924853726691,-8053.815916373098],[-7949.343145750508,-8054.343145750508],[-7948.815916373098,-8054.924853726691],[-7948.34824310158,-8055.555438135843],[-7947.9446298852135,-8056.228826105392],[-7947.60896373991,-8056.938532541079],[-7947.586970331434,-8057.0],[-7945.0,-8057.0],[-7944.215862877363,-8057.038522186623],[-7943.439277423871,-8057.153717756774],[-7942.677722581964,-8057.344477314143],[-7941.938532541079,-8057.60896373991],[-7941.228826105392,-8057.9446298852135],[-7940.555438135843,-8058.34824310158],[-7939.924853726691,-8058.815916373098],[-7939.343145750508,-8059.343145750508],[-7938.815916373098,-8059.924853726691],[-7938.34824310158,-8060.555438135843],[-7937.9446298852135,-8061.228826105392],[-7937.60896373991,-8061.938532541079],[-7937.586970331434,-8062.0],[-7935.0,-8062.0],[-7934.215862877363,-8062.038522186623],[-7933.439277423871,-8062.153717756774],[-7932.677722581964,-8062.344477314143],[-7931.938532541079,-8062.60896373991],[-7931.228826105392,-8062.9446298852135],[-7930.555438135843,-8063.34824310158],[-7929.924853726691,-8063.815916373098],[-7929.343145750508,-8064.343145750508],[-7928.815916373098,-8064.924853726691],[-7928.34824310158,-8065.555438135843],[-7927.9446298852135,-8066.228826105392],[-7927.60896373991,-8066.938532541079],[-7927.432293311347,-8067.432293311347],[-7926.938532541079,-8067.60896373991],[-7926.228826105392,-8067.9446298852135],[-7925.555438135843,-8068.34824310158],[-7924.924853726691,-8068.815916373098],[-7924.343145750508,-8069.343145750508],[-7923.815916373098,-8069.924853726691],[-7923.34824310158,-8070.555438135843],[-7922.9446298852135,-8071.228826105392],[-7922.60896373991,-8071.938532541079],[-7922.586970331434,-8072.0],[-7920.0,-8072.0],[-7919.215862877363,-8072.038522186623],[-7918.439277423871,-8072.153717756774],[-7917.677722581964,-8072.344477314143],[-7916.938532541079,-8072.60896373991],[-7916.228826105392,-8072.9446298852135],[-7915.555438135843,-8073.34824310158],[-7914.924853726691,-8073.815916373098],[-7914.343145750508,-8074.343145750508],[-7913.815916373098,-8074.924853726691],[-7913.34824310158,-8075.555438135843],[-7912.9446298852135,-8076.228826105392],[-7912.60896373991,-8076.938532541079],[-7912.586970331434,-8077.0],[-7910.0,-8077.0],[-7909.215862877363,-8077.038522186623],[-7908.439277423871,-8077.153717756774],[-7907.677722581964,-8077.344477314143],[-7906.938532541079,-8077.60896373991],[-7906.228826105392,-8077.9446298852135],[-7905.555438135843,-8078.34824310158],[-7904.924853726691,-8078.815916373098],[-7904.343145750508,-8079.343145750508],[-7903.815916373098,-8079.924853726691],[-7903.34824310158,-8080.555438135843],[-7902.9446298852135,-8081.228826105392],[-7902.60896373991,-8081.938532541079],[-7902.586970331434,-8082.0],[-7900.0,-8082.0],[-7899.215862877363,-8082.038522186623],[-7898.439277423871,-8082.153717756774],[-7897.677722581964,-8082.344477314143],[-7896.938532541079,-8082.60896373991],[-7896.228826105392,-8082.9446298852135],[-7895.555438135843,-8083.34824310158],[-7894.924853726691,-8083.815916373098],[-7894.343145750508,-8084.343145750508],[-7893.815916373098,-8084.924853726691],[-7893.34824310158,-8085.555438135843],[-7892.9446298852135,-8086.228826105392],[-7892.60896373991,-8086.938532541079],[-7892.586970331434,-8087.0],[-7890.0,-8087.0],[-7889.215862877363,-8087.038522186623],[-7888.439277423871,-8087.153717756774],[-7887.677722581964,-8087.344477314143],[-7886.938532541079,-8087.60896373991],[-7886.228826105392,-8087.9446298852135],[-7885.555438135843,-8088.34824310158],[-7884.924853726691,-8088.815916373098],[-7884.343145750508,-8089.343145750508],[-7883.815916373098,-8089.924853726691],[-7883.34824310158,-8090.555438135843],[-7882.9446298852135,-8091.228826105392],[-7882.60896373991,-8091.938532541079],[-7882.586970331434,-8092.0],[-7880.0,-8092.0],[-7879.215862877363,-8092.038522186623],[-7878.439277423871,-8092.153717756774],[-7877.677722581964,-8092.344477314143],[-7876.938532541079,-8092.60896373991],[-7876.228826105392,-8092.9446298852135],[-7875.555438135843,-8093.34824310158],[-7874.924853726691,-8093.815916373098],[-7874.343145750508,-8094.343145750508],[-7873.815916373098,-8094.924853726691],[-7873.34824310158,-8095.555438135843],[-7872.9446298852135,-8096.228826105392],[-7872.60896373991,-8096.938532541079],[-7872.586970331434,-8097.0],[-7870.0,-8097.0],[-7869.215862877363,-8097.038522186623],[-7868.439277423871,-8097.153717756774],[-7867.677722581964,-8097.344477314143],[-7866.938532541079,-8097.60896373991],[-7866.228826105392,-8097.9446298852135],[-7865.555438135843,-8098.34824310158],[-7864.924853726691,-8098.815916373098],[-7864.343145750508,-8099.343145750508],[-7863.815916373098,-8099.924853726691],[-7863.34824310158,-8100.555438135843],[-7862.9446298852135,-8101.228826105392],[-7862.60896373991,-8101.938532541079],[-7862.432293311347,-8102.432293311347],[-7861.938532541079,-8102.60896373991],[-7861.228826105392,-8102.9446298852135],[-7860.555438135843,-8103.34824310158],[-7859.924853726691,-8103.815916373098],[-7859.343145750508,-8104.343145750508],[-7858.815916373098,-8104.924853726691],[-7858.34824310158,-8105.555438135843],[-7857.9446298852135,-8106.228826105392],[-7857.60896373991,-8106.938532541079],[-7857.586970331434,-8107.0],[-7855.0,-8107.0],[-7854.215862877363,-8107.038522186623],[-7853.439277423871,-8107.153717756774],[-7852.677722581964,-8107.344477314143],[-7851.938532541079,-8107.60896373991],[-7851.228826105392,-8107.9446298852135],[-7850.555438135843,-8108.34824310158],[-7849.924853726691,-8108.815916373098],[-7849.343145750508,-8109.343145750508],[-7848.815916373098,-8109.924853726691],[-7848.34824310158,-8110.555438135843],[-7847.9446298852135,-8111.228826105392],[-7847.60896373991,-8111.938532541079],[-7847.586970331434,-8112.0],[-7845.0,-8112.0],[-7844.215862877363,-8112.038522186623],[-7843.439277423871,-8112.153717756774],[-7842.677722581964,-8112.344477314143],[-7841.938532541079,-8112.60896373991],[-7841.228826105392,-8112.9446298852135],[-7840.555438135843,-8113.34824310158],[-7839.924853726691,-8113.815916373098],[-7839.343145750508,-8114.343145750508],[-7838.815916373098,-8114.924853726691],[-7838.34824310158,-8115.555438135843],[-7837.9446298852135,-8116.228826105392],[-7837.60896373991,-8116.938532541079],[-7837.586970331434,-8117.0],[-7835.0,-8117.0],[-7834.215862877363,-8117.038522186623],[-7833.439277423871,-8117.153717756774],[-7832.677722581964,-8117.344477314143],[-7831.938532541079,-8117.60896373991],[-7831.228826105392,-8117.9446298852135],[-7830.555438135843,-8118.34824310158],[-7829.924853726691,-8118.815916373098],[-7829.343145750508,-8119.343145750508],[-7828.815916373098,-8119.924853726691],[-7828.34824310158,-8120.555438135843],[-7827.9446298852135,-8121.228826105392],[-7827.60896373991,-8121.938532541079],[-7827.586970331434,-8122.0],[-7825.0,-8122.0],[-7824.215862877363,-8122.038522186623],[-7823.439277423871,-8122.153717756774],[-7822.677722581964,-8122.344477314143],[-7821.938532541079,-8122.60896373991],[-7821.228826105392,-8122.9446298852135],[-7820.555438135843,-8123.34824310158],[-7819.924853726691,-8123.815916373098],[-7819.343145750508,-8124.343145750508],[-7818.815916373098,-8124.924853726691],[-7818.34824310158,-8125.555438135843],[-7817.9446298852135,-8126.228826105392],[-7817.60896373991,-8126.938532541079],[-7817.432293311347,-8127.432293311347],[-7816.938532541079,-8127.60896373991],[-7816.228826105392,-8127.9446298852135],[-7815.555438135843,-8128.34824310158],[-7814.924853726691,-8128.815916373098],[-7814.343145750508,-8129.343145750508],[-7813.815916373098,-8129.924853726691],[-7813.34824310158,-8130.555438135843],[-7812.9446298852135,-8131.228826105392],[-7812.60896373991,-8131.938532541079],[-7812.586970331434,-8132.0],[-7810.0,-8132.0],[-7809.215862877363,-8132.038522186623],[-7808.439277423871,-8132.153717756774],[-7807.677722581964,-8132.344477314143],[-7806.938532541079,-8132.60896373991],[-7806.228826105392,-8132.9446298852135],[-7805.555438135843,-8133.34824310158],[-7804.924853726691,-8133.815916373098],[-7804.343145750508,-8134.343145750508],[-7803.815916373098,-8134.924853726691],[-7803.34824310158,-8135.555438135843],[-7802.9446298852135,-8136.228826105392],[-7802.60896373991,-8136.938532541079],[-7802.586970331434,-8137.0],[-7800.0,-8137.0],[-7799.215862877363,-8137.038522186623],[-7798.439277423871,-8137.153717756774],[-7797.677722581964,-8137.344477314143],[-7796.938532541079,-8137.60896373991],[-7796.228826105392,-8137.9446298852135],[-7795.555438135843,-8138.34824310158],[-7794.924853726691,-8138.815916373098],[-7794.343145750508,-8139.343145750508],[-7793.815916373098,-8139.924853726691],[-7793.34824310158,-8140.555438135843],[-7792.9446298852135,-8141.228826105392],[-7792.60896373991,-8141.938532541079],[-7792.586970331434,-8142.0],[-7790.0,-8142.0],[-7789.215862877363,-8142.038522186623],[-7788.439277423871,-8142.153717756774],[-7787.677722581964,-8142.344477314143],[-7786.938532541079,-8142.60896373991],[-7786.228826105392,-8142.9446298852135],[-7785.555438135843,-8143.34824310158],[-7784.924853726691,-8143.815916373098],[-7784.343145750508,-8144.343145750508],[-7783.815916373098,-8144.924853726691],[-7783.34824310158,-8145.555438135843],[-7782.9446298852135,-8146.228826105392],[-7782.60896373991,-8146.938532541079],[-7782.586970331434,-8147.0],[-7780.0,-8147.0],[-7779.215862877363,-8147.038522186623],[-7778.439277423871,-8147.153717756774],[-7777.677722581964,-8147.344477314143],[-7776.938532541079,-8147.60896373991],[-7776.228826105392,-8147.9446298852135],[-7775.555438135843,-8148.34824310158],[-7774.924853726691,-8148.815916373098],[-7774.343145750508,-8149.343145750508],[-7773.815916373098,-8149.924853726691],[-7773.34824310158,-8150.555438135843],[-7772.9446298852135,-8151.228826105392],[-7772.60896373991,-8151.938532541079],[-7772.432293311347,-8152.432293311347],[-7771.938532541079,-8152.60896373991],[-7771.228826105392,-8152.9446298852135],[-7770.555438135843,-8153.34824310158],[-7769.924853726691,-8153.815916373098],[-7769.343145750508,-8154.343145750508],[-7768.815916373098,-8154.924853726691],[-7768.34824310158,-8155.555438135843],[-7767.9446298852135,-8156.228826105392],[-7767.60896373991,-8156.938532541079],[-7767.586970331434,-8157.0],[-7765.0,-8157.0],[-7764.215862877363,-8157.038522186623],[-7763.439277423871,-8157.153717756774],[-7762.677722581964,-8157.344477314143],[-7761.938532541079,-8157.60896373991],[-7761.228826105392,-8157.9446298852135],[-7760.555438135843,-8158.34824310158],[-7759.924853726691,-8158.815916373098],[-7759.343145750508,-8159.343145750508],[-7758.815916373098,-8159.924853726691],[-7758.34824310158,-8160.555438135843],[-7757.9446298852135,-8161.228826105392],[-7757.60896373991,-8161.938532541079],[-7757.586970331434,-8162.0],[-7755.0,-8162.0],[-7754.215862877363,-8162.038522186623],[-7753.439277423871,-8162.153717756774],[-7752.677722581964,-8162.344477314143],[-7751.938532541079,-8162.60896373991],[-7751.228826105392,-8162.9446298852135],[-7750.555438135843,-8163.34824310158],[-7749.924853726691,-8163.815916373098],[-7749.343145750508,-8164.343145750508],[-7748.815916373098,-8164.924853726691],[-7748.34824310158,-8165.555438135843],[-7747.9446298852135,-8166.228826105392],[-7747.60896373991,-8166.938532541079],[-7747.586970331434,-8167.0],[-7745.0,-8167.0],[-7744.215862877363,-8167.038522186623],[-7743.439277423871,-8167.153717756774],[-7742.677722581964,-8167.344477314143],[-7741.938532541079,-8167.60896373991],[-7741.228826105392,-8167.9446298852135],[-7740.555438135843,-8168.34824310158],[-7739.924853726691,-8168.815916373098],[-7739.343145750508,-8169.343145750508],[-7738.815916373098,-8169.924853726691],[-7738.34824310158,-8170.555438135843],[-7737.9446298852135,-8171.228826105392],[-7737.60896373991,-8171.938532541079],[-7737.432293311347,-8172.432293311347],[-7736.938532541079,-8172.60896373991],[-7736.228826105392,-8172.9446298852135],[-7735.555438135843,-8173.34824310158],[-7734.924853726691,-8173.815916373098],[-7734.343145750508,-8174.343145750508],[-7733.815916373098,-8174.924853726691],[-7733.34824310158,-8175.555438135843],[-7732.9446298852135,-8176.228826105392],[-7732.60896373991,-8176.938532541079],[-7732.586970331434,-8177.0],[-7730.0,-8177.0],[-7729.215862877363,-8177.038522186623],[-7728.439277423871,-8177.153717756774],[-7727.677722581964,-8177.344477314143],[-7726.938532541079,-8177.60896373991],[-7726.228826105392,-8177.9446298852135],[-7725.555438135843,-8178.34824310158],[-7724.924853726691,-8178.815916373098],[-7724.343145750508,-8179.343145750508],[-7723.815916373098,-8179.924853726691],[-7723.34824310158,-8180.555438135843],[-7722.9446298852135,-8181.228826105392],[-7722.60896373991,-8181.938532541079],[-7722.586970331434,-8182.0],[-7720.0,-8182.0],[-7719.215862877363,-8182.038522186623],[-7718.439277423871,-8182.153717756774],[-7717.677722581964,-8182.344477314143],[-7716.938532541079,-8182.60896373991],[-7716.228826105392,-8182.9446298852135],[-7715.555438135843,-8183.34824310158],[-7714.924853726691,-8183.815916373098],[-7714.343145750508,-8184.343145750508],[-7713.815916373098,-8184.924853726691],[-7713.34824310158,-8185.555438135843],[-7712.9446298852135,-8186.228826105392],[-7712.60896373991,-8186.938532541079],[-7712.586970331434,-8187.0],[-7710.0,-8187.0],[-7709.215862877363,-8187.038522186623],[-7708.439277423871,-8187.153717756774],[-7707.677722581964,-8187.344477314143],[-7706.938532541079,-8187.60896373991],[-7706.228826105392,-8187.9446298852135],[-7705.555438135843,-8188.34824310158],[-7704.924853726691,-8188.815916373098],[-7704.343145750508,-8189.343145750508],[-7703.815916373098,-8189.924853726691],[-7703.34824310158,-8190.555438135843],[-7702.9446298852135,-8191.228826105392],[-7702.60896373991,-8191.938532541079],[-7702.432293311348,-8192.432293311347],[-7701.938532541079,-8192.608963739909],[-7701.228826105392,-8192.944629885213],[-7700.555438135843,-8193.34824310158],[-7699.924853726691,-8193.815916373098],[-7699.343145750508,-8194.343145750508],[-7698.815916373098,-8194.92485372669],[-7698.34824310158,-8195.555438135843],[-7697.9446298852135,-8196.228826105393],[-7697.60896373991,-8196.938532541079],[-7697.344477314143,-8197.677722581964],[-7697.153717756774,-8198.439277423871],[-7697.038522186623,-8199.215862877363],[-7697.0,-8200.0],[-7697.0,-8205.0],[-7697.038522186623,-8205.784137122637],[-7697.153717756774,-8206.560722576129],[-7697.344477314143,-8207.322277418036],[-7697.60896373991,-8208.061467458921],[-7697.9446298852135,-8208.771173894607],[-7698.34824310158,-8209.444561864157],[-7698.815916373098,-8210.07514627331],[-7699.343145750508,-8210.656854249492],[-7699.924853726691,-8211.184083626902],[-7700.555438135843,-8211.65175689842],[-7701.228826105392,-8212.055370114787],[-7701.938532541079,-8212.391036260091],[-7702.677722581964,-8212.655522685858],[-7703.439277423871,-8212.846282243227],[-7704.215862877363,-8212.961477813378],[-7705.0,-8213.0],[-7710.0,-8213.0],[-7710.784137122637,-8212.961477813378],[-7711.560722576129,-8212.846282243227],[-7712.322277418036,-8212.655522685858],[-7713.061467458921,-8212.391036260091],[-7713.771173894608,-8212.055370114787],[-7714.444561864157,-8211.65175689842],[-7715.075146273309,-8211.184083626902],[-7715.656854249492,-8210.656854249492],[-7716.184083626902,-8210.07514627331],[-7716.65175689842,-8209.444561864157],[-7717.0553701147865,-8208.771173894607],[-7717.39103626009,-8208.061467458921],[-7717.413029668567,-8208.0],[-7720.0,-8208.0],[-7720.784137122637,-8207.961477813378],[-7721.560722576129,-8207.846282243227],[-7722.322277418036,-8207.655522685858],[-7723.061467458921,-8207.391036260091],[-7723.771173894608,-8207.055370114787],[-7724.444561864157,-8206.65175689842],[-7725.075146273309,-8206.184083626902],[-7725.656854249492,-8205.656854249492],[-7726.184083626902,-8205.07514627331],[-7726.65175689842,-8204.444561864157],[-7727.0553701147865,-8203.771173894607],[-7727.39103626009,-8203.061467458921],[-7727.413029668567,-8203.0],[-7730.0,-8203.0],[-7730.784137122637,-8202.961477813378],[-7731.560722576129,-8202.846282243227],[-7732.322277418036,-8202.655522685858],[-7733.061467458921,-8202.391036260091],[-7733.771173894608,-8202.055370114787],[-7734.444561864157,-8201.65175689842],[-7735.075146273309,-8201.184083626902],[-7735.656854249492,-8200.656854249492],[-7736.184083626902,-8200.07514627331],[-7736.65175689842,-8199.444561864157],[-7737.0553701147865,-8198.771173894607],[-7737.39103626009,-8198.061467458921],[-7737.413029668567,-8198.0],[-7740.0,-8198.0],[-7740.784137122637,-8197.961477813378],[-7741.560722576129,-8197.846282243227],[-7742.322277418036,-8197.655522685858],[-7743.061467458921,-8197.391036260091],[-7743.771173894608,-8197.055370114787],[-7744.444561864157,-8196.65175689842],[-7745.075146273309,-8196.184083626902],[-7745.656854249492,-8195.656854249492],[-7746.184083626902,-8195.07514627331],[-7746.65175689842,-8194.444561864157],[-7747.0553701147865,-8193.771173894607],[-7747.39103626009,-8193.061467458921],[-7747.567706688652,-8192.567706688653],[-7748.061467458921,-8192.391036260091],[-7748.771173894608,-8192.055370114787],[-7749.444561864157,-8191.65175689842],[-7750.075146273309,-8191.184083626902],[-7750.656854249492,-8190.656854249492],[-7751.184083626902,-8190.075146273309],[-7751.65175689842,-8189.444561864157],[-7752.0553701147865,-8188.771173894608],[-7752.39103626009,-8188.061467458921],[-7752.413029668566,-8188.0],[-7755.0,-8188.0],[-7755.784137122637,-8187.961477813377],[-7756.560722576129,-8187.846282243226],[-7757.322277418036,-8187.655522685857],[-7758.061467458921,-8187.39103626009],[-7758.771173894608,-8187.0553701147865],[-7759.444561864157,-8186.65175689842],[-7760.075146273309,-8186.184083626902],[-7760.656854249492,-8185.656854249492],[-7761.184083626902,-8185.075146273309],[-7761.65175689842,-8184.444561864157],[-7762.0553701147865,-8183.771173894608],[-7762.39103626009,-8183.061467458921],[-7762.413029668566,-8183.0],[-7765.0,-8183.0],[-7765.784137122637,-8182.961477813377],[-7766.560722576129,-8182.846282243226],[-7767.322277418036,-8182.655522685857],[-7768.061467458921,-8182.39103626009],[-7768.771173894608,-8182.0553701147865],[-7769.444561864157,-8181.65175689842],[-7770.075146273309,-8181.184083626902],[-7770.656854249492,-8180.656854249492],[-7771.184083626902,-8180.075146273309],[-7771.65175689842,-8179.444561864157],[-7772.0553701147865,-8178.771173894608],[-7772.39103626009,-8178.061467458921],[-7772.413029668566,-8178.0],[-7775.0,-8178.0],[-7775.784137122637,-8177.961477813377],[-7776.560722576129,-8177.846282243226],[-7777.322277418036,-8177.655522685857],[-7778.061467458921,-8177.39103626009],[-7778.771173894608,-8177.0553701147865],[-7779.444561864157,-8176.65175689842],[-7780.075146273309,-8176.184083626902],[-7780.656854249492,-8175.656854249492],[-7781.184083626902,-8175.075146273309],[-7781.65175689842,-8174.444561864157],[-7782.0553701147865,-8173.771173894608],[-7782.39103626009,-8173.061467458921],[-7782.413029668566,-8173.0],[-7785.0,-8173.0],[-7785.784137122637,-8172.961477813377],[-7786.560722576129,-8172.846282243226],[-7787.322277418036,-8172.655522685857],[-7788.061467458921,-8172.39103626009],[-7788.771173894608,-8172.0553701147865],[-7789.444561864157,-8171.65175689842],[-7790.075146273309,-8171.184083626902],[-7790.656854249492,-8170.656854249492],[-7791.184083626902,-8170.075146273309],[-7791.65175689842,-8169.444561864157],[-7792.0553701147865,-8168.771173894608],[-7792.39103626009,-8168.061467458921],[-7792.567706688653,-8167.567706688653],[-7793.061467458921,-8167.39103626009],[-7793.771173894608,-8167.0553701147865],[-7794.444561864157,-8166.65175689842],[-7795.075146273309,-8166.184083626902],[-7795.656854249492,-8165.656854249492],[-7796.184083626902,-8165.075146273309],[-7796.65175689842,-8164.444561864157],[-7797.0553701147865,-8163.771173894608],[-7797.39103626009,-8163.061467458921],[-7797.413029668566,-8163.0],[-7800.0,-8163.0],[-7800.784137122637,-8162.961477813377],[-7801.560722576129,-8162.846282243226],[-7802.322277418036,-8162.655522685857],[-7803.061467458921,-8162.39103626009],[-7803.771173894608,-8162.0553701147865],[-7804.444561864157,-8161.65175689842],[-7805.075146273309,-8161.184083626902],[-7805.656854249492,-8160.656854249492],[-7806.184083626902,-8160.075146273309],[-7806.65175689842,-8159.444561864157],[-7807.0553701147865,-8158.771173894608],[-7807.39103626009,-8158.061467458921],[-7807.413029668566,-8158.0],[-7810.0,-8158.0],[-7810.784137122637,-8157.961477813377],[-7811.560722576129,-8157.846282243226],[-7812.322277418036,-8157.655522685857],[-7813.061467458921,-8157.39103626009],[-7813.771173894608,-8157.0553701147865],[-7814.444561864157,-8156.65175689842],[-7815.075146273309,-8156.184083626902],[-7815.656854249492,-8155.656854249492],[-7816.184083626902,-8155.075146273309],[-7816.65175689842,-8154.444561864157],[-7817.0553701147865,-8153.771173894608],[-7817.39103626009,-8153.061467458921],[-7817.413029668566,-8153.0],[-7820.0,-8153.0],[-7820.784137122637,-8152.961477813377],[-7821.560722576129,-8152.846282243226],[-7822.322277418036,-8152.655522685857],[-7823.061467458921,-8152.39103626009],[-7823.771173894608,-8152.0553701147865],[-7824.444561864157,-8151.65175689842],[-7825.075146273309,-8151.184083626902],[-7825.656854249492,-8150.656854249492],[-7826.184083626902,-8150.075146273309],[-7826.65175689842,-8149.444561864157],[-7827.0553701147865,-8148.771173894608],[-7827.39103626009,-8148.061467458921],[-7827.413029668566,-8148.0],[-7830.0,-8148.0],[-7830.784137122637,-8147.961477813377],[-7831.560722576129,-8147.846282243226],[-7832.322277418036,-8147.655522685857],[-7833.061467458921,-8147.39103626009],[-7833.771173894608,-8147.0553701147865],[-7834.444561864157,-8146.65175689842],[-7835.075146273309,-8146.184083626902],[-7835.656854249492,-8145.656854249492],[-7836.184083626902,-8145.075146273309],[-7836.65175689842,-8144.444561864157],[-7837.0553701147865,-8143.771173894608],[-7837.39103626009,-8143.061467458921],[-7837.567706688653,-8142.567706688653],[-7838.061467458921,-8142.39103626009],[-7838.771173894608,-8142.0553701147865],[-7839.444561864157,-8141.65175689842],[-7840.075146273309,-8141.184083626902],[-7840.656854249492,-8140.656854249492],[-7841.184083626902,-8140.075146273309],[-7841.65175689842,-8139.444561864157],[-7842.0553701147865,-8138.771173894608],[-7842.39103626009,-8138.061467458921],[-7842.413029668566,-8138.0],[-7845.0,-8138.0],[-7845.784137122637,-8137.961477813377],[-7846.560722576129,-8137.846282243226],[-7847.322277418036,-8137.655522685857],[-7848.061467458921,-8137.39103626009],[-7848.771173894608,-8137.0553701147865],[-7849.444561864157,-8136.65175689842],[-7850.075146273309,-8136.184083626902],[-7850.656854249492,-8135.656854249492],[-7851.184083626902,-8135.075146273309],[-7851.65175689842,-8134.444561864157],[-7852.0553701147865,-8133.771173894608],[-7852.39103626009,-8133.061467458921],[-7852.413029668566,-8133.0],[-7855.0,-8133.0],[-7855.784137122637,-8132.961477813377],[-7856.560722576129,-8132.846282243226],[-7857.322277418036,-8132.655522685857],[-7858.061467458921,-8132.39103626009],[-7858.771173894608,-8132.0553701147865],[-7859.444561864157,-8131.65175689842],[-7860.075146273309,-8131.184083626902],[-7860.656854249492,-8130.656854249492],[-7861.184083626902,-8130.075146273309],[-7861.65175689842,-8129.444561864157],[-7862.0553701147865,-8128.771173894608],[-7862.39103626009,-8128.061467458921],[-7862.413029668566,-8128.0],[-7865.0,-8128.0],[-7865.784137122637,-8127.961477813377],[-7866.560722576129,-8127.846282243226],[-7867.322277418036,-8127.655522685857],[-7868.061467458921,-8127.39103626009],[-7868.771173894608,-8127.0553701147865],[-7869.444561864157,-8126.65175689842],[-7870.075146273309,-8126.184083626902],[-7870.656854249492,-8125.656854249492],[-7871.184083626902,-8125.075146273309],[-7871.65175689842,-8124.444561864157],[-7872.0553701147865,-8123.771173894608],[-7872.39103626009,-8123.061467458921],[-7872.567706688653,-8122.567706688653],[-7873.061467458921,-8122.39103626009],[-7873.771173894608,-8122.0553701147865],[-7874.444561864157,-8121.65175689842],[-7875.075146273309,-8121.184083626902],[-7875.656854249492,-8120.656854249492],[-7876.184083626902,-8120.075146273309],[-7876.65175689842,-8119.444561864157],[-7877.0553701147865,-8118.771173894608],[-7877.39103626009,-8118.061467458921],[-7877.413029668566,-8118.0],[-7880.0,-8118.0],[-7880.784137122637,-8117.961477813377],[-7881.560722576129,-8117.846282243226],[-7882.322277418036,-8117.655522685857],[-7883.061467458921,-8117.39103626009],[-7883.771173894608,-8117.0553701147865],[-7884.444561864157,-8116.65175689842],[-7885.075146273309,-8116.184083626902],[-7885.656854249492,-8115.656854249492],[-7886.184083626902,-8115.075146273309],[-7886.65175689842,-8114.444561864157],[-7887.0553701147865,-8113.771173894608],[-7887.39103626009,-8113.061467458921],[-7887.413029668566,-8113.0],[-7890.0,-8113.0],[-7890.784137122637,-8112.961477813377],[-7891.560722576129,-8112.846282243226],[-7892.322277418036,-8112.655522685857],[-7893.061467458921,-8112.39103626009],[-7893.771173894608,-8112.0553701147865],[-7894.444561864157,-8111.65175689842],[-7895.075146273309,-8111.184083626902],[-7895.656854249492,-8110.656854249492],[-7896.184083626902,-8110.075146273309],[-7896.65175689842,-8109.444561864157],[-7897.0553701147865,-8108.771173894608],[-7897.39103626009,-8108.061467458921],[-7897.413029668566,-8108.0],[-7900.0,-8108.0],[-7900.784137122637,-8107.961477813377],[-7901.560722576129,-8107.846282243226],[-7902.322277418036,-8107.655522685857],[-7903.061467458921,-8107.39103626009],[-7903.771173894608,-8107.0553701147865],[-7904.444561864157,-8106.65175689842],[-7905.075146273309,-8106.184083626902],[-7905.656854249492,-8105.656854249492],[-7906.184083626902,-8105.075146273309],[-7906.65175689842,-8104.444561864157],[-7907.0553701147865,-8103.771173894608],[-7907.39103626009,-8103.061467458921],[-7907.413029668566,-8103.0],[-7910.0,-8103.0],[-7910.784137122637,-8102.961477813377],[-7911.560722576129,-8102.846282243226],[-7912.322277418036,-8102.655522685857],[-7913.061467458921,-8102.39103626009],[-7913.771173894608,-8102.0553701147865],[-7914.444561864157,-8101.65175689842],[-7915.075146273309,-8101.184083626902],[-7915.656854249492,-8100.656854249492],[-7916.184083626902,-8100.075146273309],[-7916.65175689842,-8099.444561864157],[-7917.0553701147865,-8098.771173894608],[-7917.39103626009,-8098.061467458921],[-7917.567706688653,-8097.567706688653],[-7918.061467458921,-8097.39103626009],[-7918.771173894608,-8097.0553701147865],[-7919.444561864157,-8096.65175689842],[-7920.075146273309,-8096.184083626902],[-7920.656854249492,-8095.656854249492],[-7921.184083626902,-8095.075146273309],[-7921.65175689842,-8094.444561864157],[-7922.0553701147865,-8093.771173894608],[-7922.39103626009,-8093.061467458921],[-7922.413029668566,-8093.0],[-7925.0,-8093.0],[-7925.784137122637,-8092.961477813377],[-7926.560722576129,-8092.846282243226],[-7927.322277418036,-8092.655522685857],[-7928.061467458921,-8092.39103626009],[-7928.771173894608,-8092.0553701147865],[-7929.444561864157,-8091.65175689842],[-7930.075146273309,-8091.184083626902],[-7930.656854249492,-8090.656854249492],[-7931.184083626902,-8090.075146273309],[-7931.65175689842,-8089.444561864157],[-7932.0553701147865,-8088.771173894608],[-7932.39103626009,-8088.061467458921],[-7932.413029668566,-8088.0],[-7945.0,-8088.0],[-7945.784137122637,-8087.961477813377],[-7946.560722576129,-8087.846282243226],[-7947.322277418036,-8087.655522685857],[-7948.061467458921,-8087.39103626009],[-7948.771173894608,-8087.0553701147865],[-7949.444561864157,-8086.65175689842],[-7950.075146273309,-8086.184083626902],[-7950.656854249492,-8085.656854249492],[-7951.184083626902,-8085.075146273309],[-7951.65175689842,-8084.444561864157],[-7952.0553701147865,-8083.771173894608],[-7952.39103626009,-8083.061467458921],[-7952.413029668566,-8083.0],[-7955.0,-8083.0],[-7955.784137122637,-8082.961477813377],[-7956.560722576129,-8082.846282243226],[-7957.322277418036,-8082.655522685857],[-7958.061467458921,-8082.39103626009],[-7958.771173894608,-8082.0553701147865],[-7959.444561864157,-8081.65175689842],[-7960.075146273309,-8081.184083626902],[-7960.656854249492,-8080.656854249492],[-7961.184083626902,-8080.075146273309],[-7961.65175689842,-8079.444561864157],[-7962.0553701147865,-8078.771173894608],[-7962.39103626009,-8078.061467458921],[-7962.413029668566,-8078.0],[-7970.0,-8078.0],[-7970.784137122637,-8077.961477813377],[-7971.560722576129,-8077.846282243226],[-7972.322277418036,-8077.655522685857],[-7973.061467458921,-8077.39103626009],[-7973.771173894608,-8077.0553701147865],[-7974.444561864157,-8076.65175689842],[-7975.075146273309,-8076.184083626902],[-7975.656854249492,-8075.656854249492],[-7976.184083626902,-8075.075146273309],[-7976.65175689842,-8074.444561864157],[-7977.0553701147865,-8073.771173894608],[-7977.39103626009,-8073.061467458921],[-7977.413029668566,-8073.0]]],[[[-8142.586970331434,-8038.0],[-8142.60896373991,-8038.061467458921],[-8142.9446298852135,-8038.771173894608],[-8143.34824310158,-8039.444561864157],[-8143.815916373098,-8040.075146273309],[-8144.343145750508,-8040.656854249492],[-8144.924853726691,-8041.184083626902],[-8145.555438135843,-8041.65175689842],[-8146.228826105392,-8042.0553701147865],[-8146.938532541079,-8042.39103626009],[-8147.677722581964,-8042.655522685857],[-8148.439277423871,-8042.846282243226],[-8149.215862877363,-8042.961477813377],[-8150.0,-8043.0],[-8155.0,-8043.0],[-8155.784137122637,-8042.961477813377],[-8156.560722576129,-8042.846282243226],[-8157.322277418036,-8042.655522685857],[-8158.061467458921,-8042.39103626009],[-8158.771173894608,-8042.0553701147865],[-8159.444561864157,-8041.65175689842],[-8160.075146273309,-8041.184083626902],[-8160.656854249492,-8040.656854249492],[-8161.184083626902,-8040.075146273309],[-8161.65175689842,-8039.444561864157],[-8162.0553701147865,-8038.771173894608],[-8162.39103626009,-8038.061467458921],[-8162.655522685857,-8037.322277418036],[-8162.846282243226,-8036.560722576129],[-8162.961477813377,-8035.784137122637],[-8163.0,-8035.0],[-8163.0,-8020.0],[-8162.961477813377,-8019.215862877363],[-8162.846282243226,-8018.439277423871],[-8162.655522685857,-8017.677722581964],[-8162.39103626009,-8016.938532541079],[-8162.0553701147865,-8016.228826105392],[-8161.65175689842,-8015.555438135843],[-8161.184083626902,-8014.924853726691],[-8160.656854249492,-8014.343145750508],[-8160.075146273309,-8013.815916373098],[-8159.444561864157,-8013.34824310158],[-8158.771173894608,-8012.9446298852135],[-8158.061467458921,-8012.60896373991],[-8157.322277418036,-8012.344477314143],[-8156.560722576129,-8012.153717756774],[-8155.784137122637,-8012.038522186623],[-8155.0,-8012.0],[-8135.0,-8012.0],[-8134.215862877363,-8012.038522186623],[-8133.439277423871,-8012.153717756774],[-8132.677722581964,-8012.344477314143],[-8131.938532541079,-8012.60896373991],[-8131.228826105392,-8012.9446298852135],[-8130.555438135843,-8013.34824310158],[-8129.924853726691,-8013.815916373098],[-8129.343145750508,-8014.343145750508],[-8128.815916373098,-8014.924853726691],[-8128.34824310158,-8015.555438135843],[-8127.9446298852135,-8016.228826105392],[-8127.60896373991,-8016.938532541079],[-8127.586970331434,-8017.0],[-8050.0,-8017.0],[-8049.215862877363,-8017.038522186623],[-8048.439277423871,-8017.153717756774],[-8047.677722581964,-8017.344477314143],[-8046.938532541079,-8017.60896373991],[-8046.228826105392,-8017.9446298852135],[-8045.555438135843,-8018.34824310158],[-8044.924853726691,-8018.815916373098],[-8044.343145750508,-8019.343145750508],[-8043.815916373098,-8019.924853726691],[-8043.34824310158,-8020.555438135843],[-8042.9446298852135,-8021.228826105392],[-8042.60896373991,-8021.938532541079],[-8042.432293311347,-8022.432293311347],[-8041.938532541079,-8022.60896373991],[-8041.228826105392,-8022.9446298852135],[-8040.555438135843,-8023.34824310158],[-8039.924853726691,-8023.815916373098],[-8039.343145750508,-8024.343145750508],[-8038.815916373098,-8024.924853726691],[-8038.34824310158,-8025.555438135843],[-8037.9446298852135,-8026.228826105392],[-8037.60896373991,-8026.938532541079],[-8037.432293311347,-8027.432293311347],[-8036.938532541079,-8027.60896373991],[-8036.228826105392,-8027.9446298852135],[-8035.555438135843,-8028.34824310158],[-8034.924853726691,-8028.815916373098],[-8034.343145750508,-8029.343145750508],[-8033.815916373098,-8029.924853726691],[-8033.34824310158,-8030.555438135843],[-8032.9446298852135,-8031.228826105392],[-8032.60896373991,-8031.938532541079],[-8032.432293311347,-8032.432293311347],[-8031.938532541079,-8032.60896373991],[-8031.228826105392,-8032.9446298852135],[-8030.555438135843,-8033.34824310158],[-8029.924853726691,-8033.815916373098],[-8029.343145750508,-8034.343145750508],[-8028.815916373098,-8034.924853726691],[-8028.34824310158,-8035.555438135843],[-8027.9446298852135,-8036.228826105392],[-8027.60896373991,-8036.938532541079],[-8027.344477314143,-8037.677722581964],[-8027.153717756774,-8038.439277423871],[-8027.038522186623,-8039.215862877363],[-8027.0,-8040.0],[-8027.0,-8045.0],[-8027.038522186623,-8045.784137122637],[-8027.153717756774,-8046.560722576129],[-8027.344477314143,-8047.322277418036],[-8027.60896373991,-8048.061467458921],[-8027.9446298852135,-8048.771173894608],[-8028.34824310158,-8049.444561864157],[-8028.815916373098,-8050.075146273309],[-8029.343145750508,-8050.656854249492],[-8029.924853726691,-8051.184083626902],[-8030.555438135843,-8051.65175689842],[-8031.228826105392,-8052.0553701147865],[-8031.938532541079,-8052.39103626009],[-8032.0,-8052.413029668566],[-8032.0,-8055.0],[-8032.038522186623,-8055.784137122637],[-8032.153717756774,-8056.560722576129],[-8032.344477314143,-8057.322277418036],[-8032.60896373991,-8058.061467458921],[-8032.9446298852135,-8058.771173894608],[-8033.34824310158,-8059.444561864157],[-8033.815916373098,-8060.075146273309],[-8034.343145750508,-8060.656854249492],[-8034.924853726691,-8061.184083626902],[-8035.555438135843,-8061.65175689842],[-8036.228826105392,-8062.0553701147865],[-8036.938532541079,-8062.39103626009],[-8037.677722581964,-8062.655522685857],[-8038.439277423871,-8062.846282243226],[-8039.215862877363,-8062.961477813377],[-8040.0,-8063.0],[-8045.0,-8063.0],[-8045.784137122637,-8062.961477813377],[-8046.560722576129,-8062.846282243226],[-8047.322277418036,-8062.655522685857],[-8048.061467458921,-8062.39103626009],[-8048.771173894608,-8062.0553701147865],[-8049.444561864157,-8061.65175689842],[-8050.075146273309,-8061.184083626902],[-8050.656854249492,-8060.656854249492],[-8051.184083626902,-8060.075146273309],[-8051.65175689842,-8059.444561864157],[-8052.0553701147865,-8058.771173894608],[-8052.39103626009,-8058.061467458921],[-8052.655522685857,-8057.322277418036],[-8052.846282243226,-8056.560722576129],[-8052.961477813377,-8055.784137122637],[-8053.0,-8055.0],[-8053.0,-8052.736248976639],[-8053.439277423871,-8052.846282243226],[-8054.215862877363,-8052.961477813377],[-8055.0,-8053.0],[-8065.0,-8053.0],[-8065.784137122637,-8052.961477813377],[-8066.560722576129,-8052.846282243226],[-8067.322277418036,-8052.655522685857],[-8068.061467458921,-8052.39103626009],[-8068.771173894608,-8052.0553701147865],[-8069.444561864157,-8051.65175689842],[-8070.075146273309,-8051.184083626902],[-8070.656854249492,-8050.656854249492],[-8071.184083626902,-8050.075146273309],[-8071.65175689842,-8049.444561864157],[-8072.0553701147865,-8048.771173894608],[-8072.39103626009,-8048.061467458921],[-8072.413029668566,-8048.0],[-8090.0,-8048.0],[-8090.784137122637,-8047.961477813377],[-8091.560722576129,-8047.846282243226],[-8092.322277418036,-8047.655522685857],[-8093.061467458921,-8047.39103626009],[-8093.771173894608,-8047.0553701147865],[-8094.444561864157,-8046.65175689842],[-8095.075146273309,-8046.184083626902],[-8095.656854249492,-8045.656854249492],[-8096.184083626902,-8045.075146273309],[-8096.65175689842,-8044.444561864157],[-8097.0553701147865,-8043.771173894608],[-8097.39103626009,-8043.061467458921],[-8097.413029668566,-8043.0],[-8125.0,-8043.0],[-8125.784137122637,-8042.961477813377],[-8126.560722576129,-8042.846282243226],[-8127.322277418036,-8042.655522685857],[-8128.061467458921,-8042.39103626009],[-8128.771173894608,-8042.0553701147865],[-8129.444561864157,-8041.65175689842],[-8130.075146273309,-8041.184083626902],[-8130.656854249492,-8040.656854249492],[-8131.184083626902,-8040.075146273309],[-8131.65175689842,-8039.444561864157],[-8132.0553701147865,-8038.771173894608],[-8132.39103626009,-8038.061467458921],[-8132.413029668566,-8038.0],[-8142.586970331434,-8038.0]]],[[[-8293.0,-8504.982571821398],[-8293.18802189273,-8504.669364972047],[-8293.502940240141,-8504.017674388637],[-8294.264940240142,-8502.239674388638],[-8294.536862424206,-8501.508674937624],[-8294.736310359682,-8500.75467069851],[-8295.223150359681,-8498.468660698509],[-8295.327849814916,-8497.864060696851],[-8295.385902709106,-8497.253214562863],[-8295.534072709106,-8494.628544562864],[-8295.537409947401,-8493.790350888112],[-8295.453027686428,-8492.956408799242],[-8295.281852258528,-8492.135873153193],[-8293.0,-8483.491267471563],[-8293.0,-8475.0],[-8292.961477813378,-8474.215862877363],[-8292.846282243227,-8473.439277423871],[-8292.655522685858,-8472.677722581964],[-8292.391036260091,-8471.938532541079],[-8292.055370114787,-8471.228826105393],[-8291.65175689842,-8470.555438135843],[-8291.184083626902,-8469.92485372669],[-8290.656854249492,-8469.343145750508],[-8290.07514627331,-8468.815916373098],[-8289.444561864157,-8468.34824310158],[-8288.771173894607,-8467.944629885213],[-8288.107869802321,-8467.630910413856],[-8288.0,-8467.342614085894],[-8288.0,-8465.0],[-8287.961477813378,-8464.215862877363],[-8287.846282243227,-8463.439277423871],[-8287.655522685858,-8462.677722581964],[-8287.391036260091,-8461.938532541079],[-8287.055370114787,-8461.228826105393],[-8286.65175689842,-8460.555438135843],[-8286.184083626902,-8459.92485372669],[-8285.656854249492,-8459.343145750508],[-8285.07514627331,-8458.815916373098],[-8284.444561864157,-8458.34824310158],[-8284.281510127928,-8458.250513651888],[-8283.0,-8455.832621412766],[-8283.0,-8455.0],[-8282.961477813378,-8454.215862877363],[-8282.846282243227,-8453.439277423871],[-8282.655522685858,-8452.677722581964],[-8282.391036260091,-8451.938532541079],[-8282.055370114787,-8451.228826105393],[-8281.65175689842,-8450.555438135843],[-8281.184083626902,-8449.92485372669],[-8280.656854249492,-8449.343145750508],[-8280.07514627331,-8448.815916373098],[-8279.444561864157,-8448.34824310158],[-8278.84167084752,-8447.986884132682],[-8278.0,-8446.398859687335],[-8278.0,-8445.0],[-8277.961477813378,-8444.215862877363],[-8277.846282243227,-8443.439277423871],[-8277.655522685858,-8442.677722581964],[-8277.391036260091,-8441.938532541079],[-8277.055370114787,-8441.228826105393],[-8276.65175689842,-8440.555438135843],[-8276.184083626902,-8439.92485372669],[-8275.656854249492,-8439.343145750508],[-8275.07514627331,-8438.815916373098],[-8274.444561864157,-8438.34824310158],[-8273.771173894607,-8437.944629885213],[-8273.061467458921,-8437.608963739909],[-8272.567706688653,-8437.432293311347],[-8272.391036260091,-8436.938532541079],[-8272.055370114787,-8436.228826105393],[-8271.65175689842,-8435.555438135843],[-8271.184083626902,-8434.92485372669],[-8270.656854249492,-8434.343145750508],[-8270.07514627331,-8433.815916373098],[-8269.444561864157,-8433.34824310158],[-8268.771173894607,-8432.944629885213],[-8268.061467458921,-8432.608963739909],[-8267.567706688653,-8432.432293311347],[-8267.391036260091,-8431.938532541079],[-8267.055370114787,-8431.228826105393],[-8266.65175689842,-8430.555438135843],[-8266.184083626902,-8429.92485372669],[-8265.656854249492,-8429.343145750508],[-8265.07514627331,-8428.815916373098],[-8264.444561864157,-8428.34824310158],[-8263.771173894607,-8427.944629885213],[-8263.061467458921,-8427.608963739909],[-8262.322277418036,-8427.344477314142],[-8261.560722576129,-8427.153717756773],[-8260.784137122637,-8427.038522186622],[-8260.0,-8427.0],[-8240.0,-8427.0],[-8239.215862877363,-8427.038522186622],[-8238.439277423871,-8427.153717756773],[-8237.677722581964,-8427.344477314142],[-8236.938532541079,-8427.608963739909],[-8236.228826105393,-8427.944629885213],[-8235.555438135843,-8428.34824310158],[-8234.92485372669,-8428.815916373098],[-8234.343145750508,-8429.343145750508],[-8233.815916373098,-8429.92485372669],[-8233.34824310158,-8430.555438135843],[-8232.944629885213,-8431.228826105393],[-8232.608963739909,-8431.938532541079],[-8232.586970331433,-8432.0],[-8230.0,-8432.0],[-8229.215862877363,-8432.038522186622],[-8228.439277423871,-8432.153717756773],[-8227.677722581964,-8432.344477314142],[-8226.938532541079,-8432.608963739909],[-8226.228826105393,-8432.944629885213],[-8225.555438135843,-8433.34824310158],[-8224.92485372669,-8433.815916373098],[-8224.343145750508,-8434.343145750508],[-8223.815916373098,-8434.92485372669],[-8223.34824310158,-8435.555438135843],[-8222.944629885213,-8436.228826105393],[-8222.608963739909,-8436.938532541079],[-8222.344477314142,-8437.677722581964],[-8222.153717756773,-8438.439277423871],[-8222.13047024111,-8438.595999444251],[-8212.195652027724,-8443.852857835715],[-8212.025326191033,-8443.942978595316],[-8207.34491888129,-8446.41942426097],[-8207.305467310407,-8446.440296894403],[-8190.799926682371,-8455.17376891713],[-8190.709613829403,-8455.221553389678],[-8187.348583489744,-8457.0],[-8185.0,-8457.0],[-8184.215862877363,-8457.038522186622],[-8183.439277423871,-8457.153717756773],[-8182.677722581964,-8457.344477314142],[-8181.938532541079,-8457.608963739909],[-8181.228826105392,-8457.944629885213],[-8180.555438135843,-8458.34824310158],[-8179.924853726691,-8458.815916373098],[-8179.343145750508,-8459.343145750508],[-8178.815916373098,-8459.92485372669],[-8178.34824310158,-8460.555438135843],[-8177.9446298852135,-8461.228826105393],[-8177.60896373991,-8461.938532541079],[-8177.432293311348,-8462.432293311347],[-8176.938532541079,-8462.608963739909],[-8176.228826105392,-8462.944629885213],[-8175.555438135843,-8463.34824310158],[-8174.924853726691,-8463.815916373098],[-8174.343145750508,-8464.343145750508],[-8173.815916373098,-8464.92485372669],[-8173.34824310158,-8465.555438135843],[-8172.9446298852135,-8466.228826105393],[-8172.60896373991,-8466.938532541079],[-8172.432293311348,-8467.432293311347],[-8171.938532541079,-8467.608963739909],[-8171.228826105392,-8467.944629885213],[-8170.555438135843,-8468.34824310158],[-8169.924853726691,-8468.815916373098],[-8169.343145750508,-8469.343145750508],[-8168.815916373098,-8469.92485372669],[-8168.34824310158,-8470.555438135843],[-8167.9446298852135,-8471.228826105393],[-8167.60896373991,-8471.938532541079],[-8167.344477314143,-8472.677722581964],[-8167.153717756774,-8473.439277423871],[-8167.038522186623,-8474.215862877363],[-8167.0,-8475.0],[-8167.0,-8476.95153363051],[-8165.747954600576,-8482.337096222665],[-8165.613815554586,-8483.065486151538],[-8165.547613266295,-8483.803159811881],[-8165.54991515673,-8484.543794589246],[-8165.85046515673,-8490.621074589248],[-8165.912845216056,-8491.297889460711],[-8166.032450716579,-8491.96696656111],[-8166.208418312826,-8492.6234763075],[-8167.0,-8495.143364743913],[-8167.0,-8497.586970331433],[-8166.938532541079,-8497.608963739909],[-8166.228826105392,-8497.944629885213],[-8165.555438135843,-8498.34824310158],[-8164.924853726691,-8498.815916373098],[-8164.343145750508,-8499.343145750508],[-8163.815916373098,-8499.92485372669],[-8163.34824310158,-8500.555438135843],[-8162.9446298852135,-8501.228826105393],[-8162.60896373991,-8501.938532541079],[-8162.344477314143,-8502.677722581964],[-8162.153717756774,-8503.439277423871],[-8162.038522186623,-8504.215862877363],[-8162.0,-8505.0],[-8162.0,-8510.0],[-8162.038522186623,-8510.784137122637],[-8162.153717756774,-8511.560722576129],[-8162.344477314143,-8512.322277418036],[-8162.60896373991,-8513.061467458921],[-8162.9446298852135,-8513.771173894607],[-8163.34824310158,-8514.444561864157],[-8163.815916373098,-8515.07514627331],[-8164.343145750508,-8515.656854249492],[-8164.924853726691,-8516.184083626902],[-8165.555438135843,-8516.65175689842],[-8166.228826105392,-8517.055370114787],[-8166.692575525482,-8517.27470725533],[-8167.0,-8517.900938994066],[-8167.0,-8520.0],[-8167.038522186623,-8520.784137122637],[-8167.153717756774,-8521.560722576129],[-8167.344477314143,-8522.322277418036],[-8167.60896373991,-8523.061467458921],[-8167.9446298852135,-8523.771173894607],[-8168.34824310158,-8524.444561864157],[-8168.815916373098,-8525.07514627331],[-8169.343145750508,-8525.656854249492],[-8169.924853726691,-8526.184083626902],[-8170.555438135843,-8526.65175689842],[-8171.228826105392,-8527.055370114787],[-8171.938532541079,-8527.391036260091],[-8172.677722581964,-8527.655522685858],[-8173.439277423871,-8527.846282243227],[-8174.215862877363,-8527.961477813378],[-8175.0,-8528.0],[-8180.0,-8528.0],[-8180.784137122637,-8527.961477813378],[-8181.560722576129,-8527.846282243227],[-8182.0,-8527.73624897664],[-8182.0,-8530.0],[-8182.038522186623,-8530.784137122637],[-8182.153717756774,-8531.560722576129],[-8182.344477314143,-8532.322277418036],[-8182.60896373991,-8533.061467458921],[-8182.9446298852135,-8533.771173894607],[-8183.34824310158,-8534.444561864157],[-8183.815916373098,-8535.07514627331],[-8184.343145750508,-8535.656854249492],[-8184.924853726691,-8536.184083626902],[-8185.555438135843,-8536.65175689842],[-8186.228826105392,-8537.055370114787],[-8186.938532541079,-8537.391036260091],[-8187.432293311348,-8537.567706688653],[-8187.60896373991,-8538.061467458921],[-8187.9446298852135,-8538.771173894607],[-8188.34824310158,-8539.444561864157],[-8188.815916373098,-8540.07514627331],[-8189.343145750508,-8540.656854249492],[-8189.924853726691,-8541.184083626902],[-8190.555438135843,-8541.65175689842],[-8191.228826105392,-8542.055370114787],[-8191.938532541079,-8542.391036260091],[-8192.677722581964,-8542.655522685858],[-8193.439277423871,-8542.846282243227],[-8194.215862877363,-8542.961477813378],[-8195.0,-8543.0],[-8195.550396811499,-8543.0],[-8196.493408427908,-8543.581313967596],[-8197.099063167603,-8543.919344733013],[-8197.731721342761,-8544.203644039184],[-8198.32863456505,-8544.411846997387],[-8198.34824310158,-8544.444561864157],[-8198.815916373098,-8545.07514627331],[-8199.343145750508,-8545.656854249492],[-8199.92485372669,-8546.184083626902],[-8200.555438135843,-8546.65175689842],[-8201.228826105393,-8547.055370114787],[-8201.938532541079,-8547.391036260091],[-8202.677722581964,-8547.655522685858],[-8203.439277423871,-8547.846282243227],[-8204.215862877363,-8547.961477813378],[-8205.0,-8548.0],[-8215.0,-8548.0],[-8215.784137122637,-8547.961477813378],[-8216.560722576129,-8547.846282243227],[-8217.322277418036,-8547.655522685858],[-8218.061467458921,-8547.391036260091],[-8218.771173894607,-8547.055370114787],[-8219.444561864157,-8546.65175689842],[-8220.07514627331,-8546.184083626902],[-8220.656854249492,-8545.656854249492],[-8221.184083626902,-8545.07514627331],[-8221.65175689842,-8544.444561864157],[-8222.055370114787,-8543.771173894607],[-8222.094248575011,-8543.68897229693],[-8223.41184579505,-8543.381381559457],[-8224.03417496607,-8543.2093436789],[-8224.606897341184,-8543.0],[-8225.0,-8543.0],[-8225.784137122637,-8542.961477813378],[-8226.560722576129,-8542.846282243227],[-8227.322277418036,-8542.655522685858],[-8228.061467458921,-8542.391036260091],[-8228.771173894607,-8542.055370114787],[-8229.444561864157,-8541.65175689842],[-8230.07514627331,-8541.184083626902],[-8230.656854249492,-8540.656854249492],[-8230.87068508658,-8540.420928277195],[-8232.12400357044,-8539.90456956982],[-8232.719454087093,-8539.63019201249],[-8249.359919731613,-8531.119154830829],[-8249.367029312589,-8531.115524225143],[-8253.642909312588,-8528.928544225142],[-8254.067661837507,-8528.69479560771],[-8254.564763779052,-8528.401265059676],[-8265.030492512515,-8523.0],[-8270.0,-8523.0],[-8270.784137122637,-8522.961477813378],[-8271.560722576129,-8522.846282243227],[-8272.322277418036,-8522.655522685858],[-8273.061467458921,-8522.391036260091],[-8273.771173894607,-8522.055370114787],[-8274.444561864157,-8521.65175689842],[-8275.07514627331,-8521.184083626902],[-8275.656854249492,-8520.656854249492],[-8276.184083626902,-8520.07514627331],[-8276.65175689842,-8519.444561864157],[-8277.055370114787,-8518.771173894607],[-8277.391036260091,-8518.061467458921],[-8277.413029668567,-8518.0],[-8280.0,-8518.0],[-8280.784137122637,-8517.961477813378],[-8281.560722576129,-8517.846282243227],[-8282.322277418036,-8517.655522685858],[-8283.061467458921,-8517.391036260091],[-8283.771173894607,-8517.055370114787],[-8284.444561864157,-8516.65175689842],[-8285.07514627331,-8516.184083626902],[-8285.656854249492,-8515.656854249492],[-8286.184083626902,-8515.07514627331],[-8286.65175689842,-8514.444561864157],[-8287.055370114787,-8513.771173894607],[-8287.391036260091,-8513.061467458921],[-8287.567706688653,-8512.567706688653],[-8288.061467458921,-8512.391036260091],[-8288.771173894607,-8512.055370114787],[-8289.444561864157,-8511.65175689842],[-8290.07514627331,-8511.184083626902],[-8290.656854249492,-8510.656854249492],[-8291.184083626902,-8510.07514627331],[-8291.65175689842,-8509.444561864157],[-8292.055370114787,-8508.771173894607],[-8292.391036260091,-8508.061467458921],[-8292.655522685858,-8507.322277418036],[-8292.846282243227,-8506.560722576129],[-8292.961477813378,-8505.784137122637],[-8293.0,-8505.0],[-8293.0,-8504.982571821398]]],[[[-9563.55577546386,-6907.157245985313],[-9563.771173894607,-6907.0553701147865],[-9564.444561864157,-6906.65175689842],[-9565.07514627331,-6906.184083626902],[-9565.656854249492,-6905.656854249492],[-9566.184083626902,-6905.075146273309],[-9566.65175689842,-6904.444561864157],[-9567.055370114787,-6903.771173894608],[-9567.391036260091,-6903.061467458921],[-9567.655522685858,-6902.322277418036],[-9567.846282243227,-6901.560722576129],[-9567.961477813378,-6900.784137122637],[-9568.0,-6900.0],[-9568.0,-6870.0],[-9567.961477813378,-6869.215862877363],[-9567.846282243227,-6868.439277423871],[-9567.655522685858,-6867.677722581964],[-9567.391036260091,-6866.938532541079],[-9567.055370114787,-6866.228826105392],[-9566.65175689842,-6865.555438135843],[-9566.184083626902,-6864.924853726691],[-9565.656854249492,-6864.343145750508],[-9565.07514627331,-6863.815916373098],[-9564.444561864157,-6863.34824310158],[-9563.771173894607,-6862.9446298852135],[-9563.722524975741,-6862.921620660205],[-9563.377019991365,-6861.469232925907],[-9563.270799159362,-6860.919104139261],[-9563.131199817424,-6860.320614587769],[-9561.782409817424,-6855.400694587769],[-9558.344771822314,-6842.861351900931],[-9557.10173213334,-6838.327153035456],[-9553.66421044031,-6825.788246859855],[-9552.28802135003,-6820.768370178193],[-9551.968098819925,-6819.832595990351],[-9551.793745495801,-6819.4099644893],[-9548.86169772093,-6811.889590419378],[-9548.615246414422,-6811.323130516556],[-9548.0,-6810.046183480742],[-9548.0,-6805.0],[-9547.961477813378,-6804.215862877363],[-9547.846282243227,-6803.439277423871],[-9547.655522685858,-6802.677722581964],[-9547.391036260091,-6801.938532541079],[-9547.055370114787,-6801.228826105392],[-9546.65175689842,-6800.555438135843],[-9546.184083626902,-6799.924853726691],[-9545.656854249492,-6799.343145750508],[-9545.07514627331,-6798.815916373098],[-9544.444561864157,-6798.34824310158],[-9543.771173894607,-6797.9446298852135],[-9543.061467458921,-6797.60896373991],[-9542.567706688653,-6797.432293311348],[-9542.391036260091,-6796.938532541079],[-9542.055370114787,-6796.228826105392],[-9541.65175689842,-6795.555438135843],[-9541.184083626902,-6794.924853726691],[-9540.656854249492,-6794.343145750508],[-9540.07514627331,-6793.815916373098],[-9539.444561864157,-6793.34824310158],[-9538.771173894607,-6792.9446298852135],[-9538.061467458921,-6792.60896373991],[-9537.663605059837,-6792.466606297222],[-9537.4994965266,-6792.241658679226],[-9537.391036260091,-6791.938532541079],[-9537.055370114787,-6791.228826105392],[-9536.65175689842,-6790.555438135843],[-9536.184083626902,-6789.924853726691],[-9535.656854249492,-6789.343145750508],[-9535.07514627331,-6788.815916373098],[-9534.444561864157,-6788.34824310158],[-9533.771173894607,-6787.9446298852135],[-9533.316029829535,-6787.729362774478],[-9532.306435294544,-6786.759658828153],[-9532.055370114787,-6786.228826105392],[-9531.65175689842,-6785.555438135843],[-9531.184083626902,-6784.924853726691],[-9530.656854249492,-6784.343145750508],[-9530.07514627331,-6783.815916373098],[-9529.444561864157,-6783.34824310158],[-9528.771173894607,-6782.9446298852135],[-9528.061467458921,-6782.60896373991],[-9527.567706688653,-6782.432293311348],[-9527.391036260091,-6781.938532541079],[-9527.055370114787,-6781.228826105392],[-9526.65175689842,-6780.555438135843],[-9526.184083626902,-6779.924853726691],[-9525.656854249492,-6779.343145750508],[-9525.07514627331,-6778.815916373098],[-9524.444561864157,-6778.34824310158],[-9523.771173894607,-6777.9446298852135],[-9523.061467458921,-6777.60896373991],[-9522.322277418036,-6777.344477314143],[-9521.560722576129,-6777.153717756774],[-9520.784137122637,-6777.038522186623],[-9520.0,-6777.0],[-9518.243092399847,-6777.0],[-9517.145181886954,-6776.418717143254],[-9517.055370114787,-6776.228826105392],[-9516.65175689842,-6775.555438135843],[-9516.184083626902,-6774.924853726691],[-9515.656854249492,-6774.343145750508],[-9515.07514627331,-6773.815916373098],[-9514.444561864157,-6773.34824310158],[-9513.771173894607,-6772.9446298852135],[-9513.061467458921,-6772.60896373991],[-9512.322277418036,-6772.344477314143],[-9511.560722576129,-6772.153717756774],[-9510.784137122637,-6772.038522186623],[-9510.0,-6772.0],[-9507.631230807208,-6772.0],[-9507.374555628961,-6771.903687174217],[-9507.055370114787,-6771.228826105392],[-9506.65175689842,-6770.555438135843],[-9506.184083626902,-6769.924853726691],[-9505.656854249492,-6769.343145750508],[-9505.07514627331,-6768.815916373098],[-9504.444561864157,-6768.34824310158],[-9503.771173894607,-6767.9446298852135],[-9503.061467458921,-6767.60896373991],[-9502.322277418036,-6767.344477314143],[-9501.560722576129,-6767.153717756774],[-9500.784137122637,-6767.038522186623],[-9500.0,-6767.0],[-9489.771935016552,-6767.0],[-9487.991003254947,-6766.619566774049],[-9487.382198513733,-6766.513918296767],[-9486.76705576182,-6766.455572701838],[-9486.424981111932,-6766.436417957277],[-9481.393681972622,-6765.887509339149],[-9480.808241125322,-6765.8452988915315],[-9475.06471112532,-6765.6425688915315],[-9474.13474383912,-6765.663858188557],[-9470.370103839121,-6765.969688188557],[-9469.473296056252,-6766.093942862489],[-9465.179896056252,-6766.938772862489],[-9464.920590461235,-6767.0],[-9455.0,-6767.0],[-9454.215862877363,-6767.038522186623],[-9453.439277423871,-6767.153717756774],[-9452.677722581964,-6767.344477314143],[-9451.938532541079,-6767.60896373991],[-9451.228826105393,-6767.9446298852135],[-9450.555438135843,-6768.34824310158],[-9449.92485372669,-6768.815916373098],[-9449.343145750508,-6769.343145750508],[-9448.815916373098,-6769.924853726691],[-9448.34824310158,-6770.555438135843],[-9447.944629885213,-6771.228826105392],[-9447.608963739909,-6771.938532541079],[-9447.586970331433,-6772.0],[-9445.0,-6772.0],[-9444.215862877363,-6772.038522186623],[-9443.439277423871,-6772.153717756774],[-9442.677722581964,-6772.344477314143],[-9441.938532541079,-6772.60896373991],[-9441.228826105393,-6772.9446298852135],[-9440.555438135843,-6773.34824310158],[-9439.92485372669,-6773.815916373098],[-9439.343145750508,-6774.343145750508],[-9438.815916373098,-6774.924853726691],[-9438.34824310158,-6775.555438135843],[-9437.944629885213,-6776.228826105392],[-9437.608963739909,-6776.938532541079],[-9437.604373531654,-6776.951361313741],[-9437.517194972557,-6777.0],[-9435.0,-6777.0],[-9434.215862877363,-6777.038522186623],[-9433.439277423871,-6777.153717756774],[-9432.677722581964,-6777.344477314143],[-9431.938532541079,-6777.60896373991],[-9431.228826105393,-6777.9446298852135],[-9430.555438135843,-6778.34824310158],[-9429.92485372669,-6778.815916373098],[-9429.343145750508,-6779.343145750508],[-9428.815916373098,-6779.924853726691],[-9428.34824310158,-6780.555438135843],[-9427.944629885213,-6781.228826105392],[-9427.608963739909,-6781.938532541079],[-9427.432293311347,-6782.432293311348],[-9426.938532541079,-6782.60896373991],[-9426.228826105393,-6782.9446298852135],[-9425.555438135843,-6783.34824310158],[-9424.92485372669,-6783.815916373098],[-9424.343145750508,-6784.343145750508],[-9423.815916373098,-6784.924853726691],[-9423.34824310158,-6785.555438135843],[-9422.944629885213,-6786.228826105392],[-9422.632952438295,-6786.887812699755],[-9421.345007319496,-6787.889680263322],[-9421.228826105393,-6787.9446298852135],[-9420.555438135843,-6788.34824310158],[-9419.92485372669,-6788.815916373098],[-9419.343145750508,-6789.343145750508],[-9418.815916373098,-6789.924853726691],[-9418.350744403102,-6790.55206552116],[-9414.970867425589,-6793.71201596837],[-9414.61512258805,-6794.096640313763],[-9414.343145750508,-6794.343145750508],[-9413.815916373098,-6794.924853726691],[-9413.34824310158,-6795.555438135843],[-9413.218886415154,-6795.7712567287135],[-9411.638057028771,-6797.75107807325],[-9411.228826105393,-6797.9446298852135],[-9410.555438135843,-6798.34824310158],[-9409.92485372669,-6798.815916373098],[-9409.343145750508,-6799.343145750508],[-9408.815916373098,-6799.924853726691],[-9408.34824310158,-6800.555438135843],[-9407.944629885213,-6801.228826105392],[-9407.608963739909,-6801.938532541079],[-9407.344477314142,-6802.677722581964],[-9407.153717756773,-6803.439277423871],[-9407.038522186622,-6804.215862877363],[-9407.0,-6805.0],[-9407.0,-6805.352432493979],[-9405.684708144849,-6808.270761639966],[-9405.555438135843,-6808.34824310158],[-9404.92485372669,-6808.815916373098],[-9404.343145750508,-6809.343145750508],[-9403.815916373098,-6809.924853726691],[-9403.34824310158,-6810.555438135843],[-9402.944629885213,-6811.228826105392],[-9402.608963739909,-6811.938532541079],[-9402.344477314142,-6812.677722581964],[-9402.153717756773,-6813.439277423871],[-9402.038522186622,-6814.215862877363],[-9402.0,-6815.0],[-9402.0,-6817.739408263135],[-9401.867546393669,-6818.147122011862],[-9400.413861121539,-6823.453243771578],[-9399.92485372669,-6823.815916373098],[-9399.343145750508,-6824.343145750508],[-9398.815916373098,-6824.924853726691],[-9398.34824310158,-6825.555438135843],[-9397.944629885213,-6826.228826105392],[-9397.608963739909,-6826.938532541079],[-9397.344477314142,-6827.677722581964],[-9397.153717756773,-6828.439277423871],[-9397.038522186622,-6829.215862877363],[-9397.0,-6830.0],[-9397.0,-6840.9989923391295],[-9396.91861563974,-6841.515774256908],[-9396.855686611068,-6842.018492862105],[-9396.387956611068,-6847.040982862105],[-9396.356939994988,-6847.547868699641],[-9396.150939994988,-6854.559958699641],[-9396.166146566049,-6855.340917534733],[-9396.771340089861,-6864.186934612854],[-9396.80498257507,-6864.993355938324],[-9396.860067787817,-6865.654262065819],[-9396.969705565562,-6866.308334575342],[-9397.0,-6866.427472697016],[-9397.0,-6870.0],[-9397.038522186622,-6870.784137122637],[-9397.153717756773,-6871.560722576129],[-9397.344477314142,-6872.322277418036],[-9397.608963739909,-6873.061467458921],[-9397.944629885213,-6873.771173894608],[-9398.34824310158,-6874.444561864157],[-9398.815916373098,-6875.075146273309],[-9399.343145750508,-6875.656854249492],[-9399.881236223953,-6876.144551026777],[-9402.347048761094,-6884.393706143196],[-9403.693179796483,-6888.897059606995],[-9407.416360201312,-6901.352580961323],[-9408.874998703144,-6906.232325949332],[-9409.149089335986,-6907.003196176275],[-9409.500479265347,-6907.742041017457],[-9409.925493355668,-6908.441133003413],[-9412.0,-6911.490397916005],[-9412.0,-6915.0],[-9412.038522186622,-6915.784137122637],[-9412.153717756773,-6916.560722576129],[-9412.344477314142,-6917.322277418036],[-9412.608963739909,-6918.061467458921],[-9412.944629885213,-6918.771173894608],[-9413.34824310158,-6919.444561864157],[-9413.815916373098,-6920.075146273309],[-9414.343145750508,-6920.656854249492],[-9414.92485372669,-6921.184083626902],[-9415.555438135843,-6921.65175689842],[-9416.228826105393,-6922.0553701147865],[-9416.938532541079,-6922.39103626009],[-9417.432293311347,-6922.567706688652],[-9417.608963739909,-6923.061467458921],[-9417.944629885213,-6923.771173894608],[-9418.34824310158,-6924.444561864157],[-9418.815916373098,-6925.075146273309],[-9419.343145750508,-6925.656854249492],[-9419.92485372669,-6926.184083626902],[-9420.555438135843,-6926.65175689842],[-9421.228826105393,-6927.0553701147865],[-9421.938532541079,-6927.39103626009],[-9422.432293311347,-6927.567706688652],[-9422.608963739909,-6928.061467458921],[-9422.944629885213,-6928.771173894608],[-9423.34824310158,-6929.444561864157],[-9423.815916373098,-6930.075146273309],[-9424.343145750508,-6930.656854249492],[-9424.92485372669,-6931.184083626902],[-9425.555438135843,-6931.65175689842],[-9426.228826105393,-6932.0553701147865],[-9426.938532541079,-6932.39103626009],[-9427.432293311347,-6932.567706688652],[-9427.608963739909,-6933.061467458921],[-9427.944629885213,-6933.771173894608],[-9428.34824310158,-6934.444561864157],[-9428.815916373098,-6935.075146273309],[-9429.343145750508,-6935.656854249492],[-9429.92485372669,-6936.184083626902],[-9430.555438135843,-6936.65175689842],[-9431.228826105393,-6937.0553701147865],[-9431.938532541079,-6937.39103626009],[-9432.432293311347,-6937.567706688652],[-9432.608963739909,-6938.061467458921],[-9432.944629885213,-6938.771173894608],[-9433.34824310158,-6939.444561864157],[-9433.815916373098,-6940.075146273309],[-9434.343145750508,-6940.656854249492],[-9434.92485372669,-6941.184083626902],[-9435.555438135843,-6941.65175689842],[-9436.228826105393,-6942.0553701147865],[-9436.938532541079,-6942.39103626009],[-9437.432293311347,-6942.567706688652],[-9437.608963739909,-6943.061467458921],[-9437.944629885213,-6943.771173894608],[-9438.34824310158,-6944.444561864157],[-9438.815916373098,-6945.075146273309],[-9439.343145750508,-6945.656854249492],[-9439.92485372669,-6946.184083626902],[-9440.555438135843,-6946.65175689842],[-9441.228826105393,-6947.0553701147865],[-9441.938532541079,-6947.39103626009],[-9442.677722581964,-6947.655522685857],[-9443.439277423871,-6947.846282243226],[-9444.215862877363,-6947.961477813377],[-9445.0,-6948.0],[-9447.483950988932,-6948.0],[-9447.612358892216,-6948.0686459053495],[-9447.944629885213,-6948.771173894608],[-9448.34824310158,-6949.444561864157],[-9448.815916373098,-6950.075146273309],[-9449.343145750508,-6950.656854249492],[-9449.92485372669,-6951.184083626902],[-9450.555438135843,-6951.65175689842],[-9451.228826105393,-6952.0553701147865],[-9451.938532541079,-6952.39103626009],[-9452.677722581964,-6952.655522685857],[-9453.439277423871,-6952.846282243226],[-9454.215862877363,-6952.961477813377],[-9455.0,-6953.0],[-9458.364252394143,-6953.0],[-9461.09641953875,-6953.991679176243],[-9461.670943685222,-6954.176005119049],[-9463.535957294018,-6954.697665153007],[-9463.815916373098,-6955.075146273309],[-9464.343145750508,-6955.656854249492],[-9464.92485372669,-6956.184083626902],[-9465.555438135843,-6956.65175689842],[-9466.228826105393,-6957.0553701147865],[-9466.938532541079,-6957.39103626009],[-9467.677722581964,-6957.655522685857],[-9468.439277423871,-6957.846282243226],[-9469.215862877363,-6957.961477813377],[-9470.0,-6958.0],[-9471.234010253074,-6958.0],[-9472.0,-6970.8251451400165],[-9472.0,-6975.0],[-9472.038522186622,-6975.784137122637],[-9472.153717756773,-6976.560722576129],[-9472.344477314142,-6977.322277418036],[-9472.569146593361,-6977.950185989184],[-9472.583866220391,-6978.020282202275],[-9472.819881851325,-6978.769425308812],[-9473.128222322237,-6979.491813657358],[-9473.505915429618,-6980.180483889584],[-9473.949320455213,-6980.828797668085],[-9474.454163260212,-6981.430505665669],[-9475.015577485188,-6981.9798078048525],[-9475.628151458668,-6982.471409166865],[-9476.285980362158,-6982.9005710312595],[-9476.98272314879,-6983.263156554124],[-9477.711663666938,-6983.55567064459],[-9478.465775399576,-6983.775293655258],[-9479.237789195391,-6983.919908561784],[-9480.02026333871,-6983.988121369627],[-9480.805655282851,-6983.979274551263],[-9497.006192810148,-6983.0],[-9510.0,-6983.0],[-9510.784137122637,-6982.961477813377],[-9511.560722576129,-6982.846282243226],[-9512.322277418036,-6982.655522685857],[-9513.061467458921,-6982.39103626009],[-9513.771173894607,-6982.0553701147865],[-9514.444561864157,-6981.65175689842],[-9515.07514627331,-6981.184083626902],[-9515.656854249492,-6980.656854249492],[-9516.184083626902,-6980.075146273309],[-9516.65175689842,-6979.444561864157],[-9517.055370114787,-6978.771173894608],[-9517.391036260091,-6978.061467458921],[-9517.655522685858,-6977.322277418036],[-9517.846282243227,-6976.560722576129],[-9517.961477813378,-6975.784137122637],[-9518.0,-6975.0],[-9518.0,-6957.413029668567],[-9518.061467458921,-6957.39103626009],[-9518.771173894607,-6957.0553701147865],[-9519.444561864157,-6956.65175689842],[-9520.07514627331,-6956.184083626902],[-9520.656854249492,-6955.656854249492],[-9521.184083626902,-6955.075146273309],[-9521.65175689842,-6954.444561864157],[-9522.055370114787,-6953.771173894608],[-9522.391036260091,-6953.061467458921],[-9522.413029668567,-6953.0],[-9525.0,-6953.0],[-9525.784137122637,-6952.961477813377],[-9526.560722576129,-6952.846282243226],[-9527.322277418036,-6952.655522685857],[-9528.061467458921,-6952.39103626009],[-9528.771173894607,-6952.0553701147865],[-9529.444561864157,-6951.65175689842],[-9530.07514627331,-6951.184083626902],[-9530.656854249492,-6950.656854249492],[-9531.184083626902,-6950.075146273309],[-9531.65175689842,-6949.444561864157],[-9532.055370114787,-6948.771173894608],[-9532.391036260091,-6948.061467458921],[-9532.567706688653,-6947.567706688652],[-9533.061467458921,-6947.39103626009],[-9533.771173894607,-6947.0553701147865],[-9534.444561864157,-6946.65175689842],[-9535.07514627331,-6946.184083626902],[-9535.656854249492,-6945.656854249492],[-9536.184083626902,-6945.075146273309],[-9536.65175689842,-6944.444561864157],[-9537.055370114787,-6943.771173894608],[-9537.391036260091,-6943.061467458921],[-9537.44607646033,-6942.9076404042935],[-9537.885503579628,-6942.594342577251],[-9538.270549103669,-6942.292148006839],[-9538.771173894607,-6942.0553701147865],[-9539.444561864157,-6941.65175689842],[-9540.07514627331,-6941.184083626902],[-9540.656854249492,-6940.656854249492],[-9541.184083626902,-6940.075146273309],[-9541.65175689842,-6939.444561864157],[-9541.716589360352,-6939.336395436173],[-9543.275874347482,-6937.992167476289],[-9543.882733589426,-6937.410718588507],[-9544.943344210222,-6936.281834698991],[-9545.07514627331,-6936.184083626902],[-9545.656854249492,-6935.656854249492],[-9546.184083626902,-6935.075146273309],[-9546.585247646499,-6934.534239209174],[-9548.890948256258,-6932.080116818386],[-9549.039705271409,-6931.936330451845],[-9549.134028315597,-6931.837883544561],[-9549.444561864157,-6931.65175689842],[-9550.07514627331,-6931.184083626902],[-9550.656854249492,-6930.656854249492],[-9551.184083626902,-6930.075146273309],[-9551.65175689842,-6929.444561864157],[-9552.055370114787,-6928.771173894608],[-9552.391036260091,-6928.061467458921],[-9552.567706688653,-6927.567706688652],[-9553.061467458921,-6927.39103626009],[-9553.771173894607,-6927.0553701147865],[-9554.444561864157,-6926.65175689842],[-9555.07514627331,-6926.184083626902],[-9555.656854249492,-6925.656854249492],[-9556.184083626902,-6925.075146273309],[-9556.65175689842,-6924.444561864157],[-9557.055370114787,-6923.771173894608],[-9557.391036260091,-6923.061467458921],[-9557.567706688653,-6922.567706688652],[-9558.061467458921,-6922.39103626009],[-9558.771173894607,-6922.0553701147865],[-9559.444561864157,-6921.65175689842],[-9560.07514627331,-6921.184083626902],[-9560.656854249492,-6920.656854249492],[-9561.184083626902,-6920.075146273309],[-9561.65175689842,-6919.444561864157],[-9562.055370114787,-6918.771173894608],[-9562.391036260091,-6918.061467458921],[-9562.655522685858,-6917.322277418036],[-9562.846282243227,-6916.560722576129],[-9562.961477813378,-6915.784137122637],[-9563.0,-6915.0],[-9563.0,-6909.04197106459],[-9563.55577546386,-6907.157245985313]]]]}},{"type":"Feature","properties":{"role":"source-restoration-core"},"geometry":{"type":"MultiPolygon","coordinates":[[[[-9545.0,-6924.179736163553],[-9548.17002077692,-6920.0],[-9550.0,-6920.0],[-9550.0,-6917.587135581905],[-9550.10921,-6917.44314],[-9551.59726710118,-6915.0],[-9555.0,-6915.0],[-9555.0,-6910.0],[-9555.0,-6907.887019034349],[-9557.22457,-6900.34314],[-9557.26076,-6900.11427],[-9557.283044781852,-6900.0],[-9560.0,-6900.0],[-9560.0,-6895.0],[-9560.0,-6890.0],[-9560.0,-6885.0],[-9560.0,-6880.0],[-9560.0,-6875.0],[-9560.0,-6870.0],[-9557.041423794142,-6870.0],[-9556.40115,-6866.71279],[-9555.55457,-6863.15405],[-9555.41588,-6862.43576],[-9554.06709,-6857.51584],[-9550.62945,-6844.97649],[-9549.38641,-6840.44229],[-9545.94889,-6827.90339],[-9544.5727,-6822.88351],[-9544.36857,-6822.3887],[-9541.40816,-6814.79558],[-9540.0,-6811.872936818659],[-9540.0,-6810.0],[-9540.0,-6805.0],[-9536.378363243626,-6805.0],[-9535.0,-6802.670977074247],[-9535.0,-6800.0],[-9533.256862427343,-6800.0],[-9530.24636,-6795.87343],[-9530.0,-6795.6368040517245],[-9530.0,-6795.0],[-9529.336999820493,-6795.0],[-9526.05644,-6791.84906],[-9525.0,-6791.049009578649],[-9525.0,-6790.0],[-9523.614817704369,-6790.0],[-9520.67019,-6787.77001],[-9520.0,-6787.348722099786],[-9520.0,-6785.0],[-9516.255975234728,-6785.0],[-9510.0,-6781.687807327221],[-9510.0,-6780.0],[-9506.047956305081,-6780.0],[-9504.97883,-6779.54939],[-9500.17967,-6777.74859],[-9500.0,-6777.695466817007],[-9500.0,-6775.0],[-9495.0,-6775.0],[-9490.0,-6775.0],[-9488.927007423847,-6775.0],[-9486.31979,-6774.44306],[-9485.76707,-6774.41211],[-9480.52604,-6773.84032],[-9474.78251,-6773.63759],[-9471.01787,-6773.94342],[-9466.72447,-6774.78825],[-9465.957732040844,-6775.0],[-9465.0,-6775.0],[-9460.0,-6775.0],[-9455.0,-6775.0],[-9455.0,-6778.074557204348],[-9451.9411,-6779.05077],[-9449.70756044154,-6780.0],[-9445.0,-6780.0],[-9445.0,-6782.000661945295],[-9444.89019,-6782.04733],[-9439.597910625651,-6785.0],[-9435.0,-6785.0],[-9435.0,-6787.80368082865],[-9431.697458481232,-6790.0],[-9430.0,-6790.0],[-9430.0,-6791.292526944818],[-9425.67081,-6794.66012],[-9425.30727499959,-6795.0],[-9425.0,-6795.0],[-9425.0,-6795.287280803069],[-9420.4344,-6799.5558],[-9420.079719303498,-6800.0],[-9420.0,-6800.0],[-9420.0,-6800.09983998273],[-9416.70539,-6804.22599],[-9416.281868828117,-6805.0],[-9415.0,-6805.0],[-9415.0,-6807.342691127444],[-9414.30793,-6808.60749],[-9412.29677,-6813.06979],[-9411.568416114544,-6815.0],[-9410.0,-6815.0],[-9410.0,-6819.15645818455],[-9409.58323,-6820.26094],[-9407.46472,-6827.99375],[-9407.050864382109,-6830.0],[-9405.0,-6830.0],[-9405.0,-6835.0],[-9405.0,-6840.0],[-9405.0,-6841.625066265085],[-9404.82122,-6842.7603],[-9404.35349,-6847.78279],[-9404.14749,-6854.79488],[-9404.75995,-6863.74711],[-9404.79803,-6864.6599],[-9405.0,-6865.335568604506],[-9405.0,-6870.0],[-9406.39428528966,-6870.0],[-9410.01194,-6882.10254],[-9411.35807,-6886.60589],[-9415.08125,-6899.06141],[-9416.53989,-6903.94116],[-9420.0,-6909.027088283497],[-9420.0,-6910.0],[-9420.0,-6915.0],[-9424.085713351495,-6915.0],[-9424.23986,-6915.20518],[-9424.7799,-6915.99519],[-9425.0,-6916.2852444248965],[-9425.0,-6920.0],[-9427.818842368539,-6920.0],[-9429.85629,-6922.68501],[-9430.0,-6922.86134462277],[-9430.0,-6925.0],[-9431.893860284143,-6925.0],[-9434.27054,-6927.62711],[-9435.0,-6928.32823136103],[-9435.0,-6930.0],[-9436.739339890592,-6930.0],[-9438.69719,-6931.88179],[-9439.16119,-6932.24634],[-9439.74212,-6932.79503],[-9440.0,-6933.008158872118],[-9440.0,-6935.0],[-9442.410072295475,-6935.0],[-9443.15285,-6935.61388],[-9445.0,-6936.94561427311],[-9445.0,-6940.0],[-9449.663294777427,-6940.0],[-9450.81204,-6940.70776],[-9454.07286,-6942.45097],[-9455.0,-6942.88431341324],[-9455.0,-6945.0],[-9459.771203879809,-6945.0],[-9463.8259,-6946.47171],[-9470.0,-6948.198657835912],[-9470.0,-6950.0],[-9475.0,-6950.0],[-9478.770461188815,-6950.0],[-9480.0,-6970.586455330512],[-9480.0,-6975.0],[-9480.263601692419,-6975.0],[-9480.32296,-6975.99385],[-9496.764625108863,-6975.0],[-9500.0,-6975.0],[-9505.0,-6975.0],[-9510.0,-6975.0],[-9510.0,-6970.0],[-9510.0,-6965.0],[-9510.0,-6960.0],[-9510.0,-6955.0],[-9510.0,-6950.0],[-9515.0,-6950.0],[-9515.0,-6946.808731259544],[-9519.212074938234,-6945.0],[-9520.0,-6945.0],[-9525.0,-6945.0],[-9525.0,-6941.685504156716],[-9526.99398,-6940.53455],[-9527.743732300674,-6940.0],[-9530.0,-6940.0],[-9530.0,-6938.391351520241],[-9533.24128,-6936.08042],[-9534.494551570055,-6935.0],[-9535.0,-6935.0],[-9535.0,-6934.564263160731],[-9538.05232,-6931.93292],[-9539.8683397875,-6930.0],[-9540.0,-6930.0],[-9540.0,-6929.859864600761],[-9543.19247,-6926.46189],[-9543.47977,-6926.18419],[-9544.37789054085,-6925.0],[-9545.0,-6925.0],[-9545.0,-6924.179736163553]]],[[[-8282.32345528189,-8475.0],[-8280.0,-8468.790258148772],[-8280.0,-8465.0],[-8278.581825859033,-8465.0],[-8278.04693,-8463.57042],[-8275.0,-8457.821617677186],[-8275.0,-8455.0],[-8273.504510841323,-8455.0],[-8270.0,-8448.387855951754],[-8270.0,-8445.0],[-8268.204398176274,-8445.0],[-8268.20081,-8444.99323],[-8265.0,-8441.68567443946],[-8265.0,-8440.0],[-8263.368727749597,-8440.0],[-8260.32634,-8436.85615],[-8260.0,-8436.807788735496],[-8260.0,-8435.0],[-8255.0,-8435.0],[-8250.0,-8435.0],[-8245.0,-8435.0],[-8240.0,-8435.0],[-8240.0,-8438.187601190144],[-8236.578113158432,-8440.0],[-8235.0,-8440.0],[-8230.0,-8440.0],[-8230.0,-8443.482866192178],[-8215.93715,-8450.92401],[-8215.76675,-8451.01417],[-8211.08624,-8453.49067],[-8211.04668,-8453.5116],[-8194.54137,-8462.24495],[-8194.45099,-8462.29277],[-8189.334681141895,-8465.0],[-8185.0,-8465.0],[-8185.0,-8467.29364159851],[-8183.77242,-8467.9432],[-8181.64972459761,-8470.0],[-8180.0,-8470.0],[-8180.0,-8471.598511754699],[-8178.71303,-8472.84553],[-8177.217603729579,-8475.0],[-8175.0,-8475.0],[-8175.0,-8478.194915591475],[-8174.88615,-8478.35894],[-8173.54015,-8484.14864],[-8173.8407,-8490.22592],[-8175.0,-8493.916387720097],[-8175.0,-8495.0],[-8175.0,-8500.0],[-8178.045294373577,-8500.0],[-8179.4046,-8502.52186],[-8174.261291761405,-8505.0],[-8170.0,-8505.0],[-8170.0,-8510.0],[-8172.033330583037,-8510.0],[-8175.0,-8516.04318361495],[-8175.0,-8520.0],[-8180.0,-8520.0],[-8180.0,-8518.13434907054],[-8184.76475,-8515.84527],[-8185.0,-8516.26230771964],[-8185.0,-8520.0],[-8187.108423453188,-8520.0],[-8190.0,-8525.126021208283],[-8190.0,-8530.0],[-8192.749400010482,-8530.0],[-8194.37135,-8532.8753],[-8195.0,-8533.262827597084],[-8195.0,-8535.0],[-8197.818053318813,-8535.0],[-8200.69142,-8536.77127],[-8205.0,-8537.669423393823],[-8205.0,-8540.0],[-8210.0,-8540.0],[-8215.0,-8540.0],[-8215.0,-8537.130011525112],[-8221.59316,-8535.59085],[-8223.02728557126,-8535.0],[-8225.0,-8535.0],[-8225.0,-8534.18725504685],[-8229.07656,-8532.50774],[-8229.10745,-8532.49194],[-8245.72057,-8523.99489],[-8245.72412,-8523.99308],[-8250.0,-8521.8061],[-8250.69333,-8521.3967],[-8265.0,-8514.013160949897],[-8265.0,-8515.0],[-8270.0,-8515.0],[-8270.0,-8511.479865824693],[-8272.964035284727,-8510.0],[-8275.0,-8510.0],[-8280.0,-8510.0],[-8280.0,-8506.487125581963],[-8282.40286,-8505.28744],[-8282.705266855952,-8505.0],[-8285.0,-8505.0],[-8285.0,-8502.598866428678],[-8286.14978,-8500.86632],[-8286.91178,-8499.08832],[-8287.39862,-8496.80231],[-8287.54679,-8494.17764],[-8285.0,-8484.529339930772],[-8285.0,-8480.0],[-8285.0,-8475.0],[-8282.32345528189,-8475.0]]],[[[-8105.0,-8035.0],[-8110.0,-8035.0],[-8115.0,-8035.0],[-8120.0,-8035.0],[-8125.0,-8035.0],[-8125.0,-8030.0],[-8130.0,-8030.0],[-8135.0,-8030.0],[-8140.0,-8030.0],[-8145.0,-8030.0],[-8150.0,-8030.0],[-8150.0,-8035.0],[-8155.0,-8035.0],[-8155.0,-8030.0],[-8155.0,-8025.0],[-8155.0,-8020.0],[-8150.0,-8020.0],[-8145.0,-8020.0],[-8140.0,-8020.0],[-8135.0,-8020.0],[-8135.0,-8025.0],[-8130.0,-8025.0],[-8125.0,-8025.0],[-8120.0,-8025.0],[-8115.0,-8025.0],[-8110.0,-8025.0],[-8105.0,-8025.0],[-8100.0,-8025.0],[-8095.0,-8025.0],[-8090.0,-8025.0],[-8085.0,-8025.0],[-8080.0,-8025.0],[-8075.0,-8025.0],[-8070.0,-8025.0],[-8065.0,-8025.0],[-8060.0,-8025.0],[-8055.0,-8025.0],[-8050.0,-8025.0],[-8050.0,-8030.0],[-8045.0,-8030.0],[-8045.0,-8035.0],[-8040.0,-8035.0],[-8040.0,-8040.0],[-8035.0,-8040.0],[-8035.0,-8045.0],[-8040.0,-8045.0],[-8040.0,-8050.0],[-8040.0,-8055.0],[-8045.0,-8055.0],[-8045.0,-8050.0],[-8045.0,-8045.0],[-8045.0,-8040.0],[-8050.0,-8040.0],[-8055.0,-8040.0],[-8055.0,-8045.0],[-8060.0,-8045.0],[-8065.0,-8045.0],[-8065.0,-8040.0],[-8070.0,-8040.0],[-8075.0,-8040.0],[-8080.0,-8040.0],[-8085.0,-8040.0],[-8090.0,-8040.0],[-8090.0,-8035.0],[-8095.0,-8035.0],[-8100.0,-8035.0],[-8105.0,-8035.0]]],[[[-7710.0,-8200.0],[-7705.0,-8200.0],[-7705.0,-8205.0],[-7710.0,-8205.0],[-7710.0,-8200.0]]],[[[-7720.0,-8200.0],[-7720.0,-8195.0],[-7715.0,-8195.0],[-7710.0,-8195.0],[-7710.0,-8200.0],[-7715.0,-8200.0],[-7720.0,-8200.0]]],[[[-7725.0,-8195.0],[-7730.0,-8195.0],[-7730.0,-8190.0],[-7725.0,-8190.0],[-7720.0,-8190.0],[-7720.0,-8195.0],[-7725.0,-8195.0]]],[[[-7730.0,-8190.0],[-7735.0,-8190.0],[-7740.0,-8190.0],[-7740.0,-8185.0],[-7735.0,-8185.0],[-7730.0,-8185.0],[-7730.0,-8190.0]]],[[[-7745.0,-8180.0],[-7740.0,-8180.0],[-7740.0,-8185.0],[-7745.0,-8185.0],[-7745.0,-8180.0]]],[[[-7755.0,-8180.0],[-7755.0,-8175.0],[-7750.0,-8175.0],[-7745.0,-8175.0],[-7745.0,-8180.0],[-7750.0,-8180.0],[-7755.0,-8180.0]]],[[[-7760.0,-8175.0],[-7765.0,-8175.0],[-7765.0,-8170.0],[-7760.0,-8170.0],[-7755.0,-8170.0],[-7755.0,-8175.0],[-7760.0,-8175.0]]],[[[-7765.0,-8170.0],[-7770.0,-8170.0],[-7775.0,-8170.0],[-7775.0,-8165.0],[-7770.0,-8165.0],[-7765.0,-8165.0],[-7765.0,-8170.0]]],[[[-7780.0,-8155.0],[-7780.0,-8160.0],[-7775.0,-8160.0],[-7775.0,-8165.0],[-7780.0,-8165.0],[-7785.0,-8165.0],[-7785.0,-8160.0],[-7790.0,-8160.0],[-7790.0,-8155.0],[-7785.0,-8155.0],[-7780.0,-8155.0]]],[[[-7800.0,-8155.0],[-7800.0,-8150.0],[-7795.0,-8150.0],[-7790.0,-8150.0],[-7790.0,-8155.0],[-7795.0,-8155.0],[-7800.0,-8155.0]]],[[[-7800.0,-8145.0],[-7800.0,-8150.0],[-7805.0,-8150.0],[-7810.0,-8150.0],[-7810.0,-8145.0],[-7805.0,-8145.0],[-7800.0,-8145.0]]],[[[-7820.0,-8145.0],[-7820.0,-8140.0],[-7815.0,-8140.0],[-7810.0,-8140.0],[-7810.0,-8145.0],[-7815.0,-8145.0],[-7820.0,-8145.0]]],[[[-7825.0,-8130.0],[-7825.0,-8135.0],[-7820.0,-8135.0],[-7820.0,-8140.0],[-7825.0,-8140.0],[-7830.0,-8140.0],[-7830.0,-8135.0],[-7835.0,-8135.0],[-7835.0,-8130.0],[-7830.0,-8130.0],[-7825.0,-8130.0]]],[[[-7840.0,-8130.0],[-7845.0,-8130.0],[-7845.0,-8125.0],[-7840.0,-8125.0],[-7835.0,-8125.0],[-7835.0,-8130.0],[-7840.0,-8130.0]]],[[[-7855.0,-8125.0],[-7855.0,-8120.0],[-7850.0,-8120.0],[-7845.0,-8120.0],[-7845.0,-8125.0],[-7850.0,-8125.0],[-7855.0,-8125.0]]],[[[-7865.0,-8120.0],[-7865.0,-8115.0],[-7860.0,-8115.0],[-7855.0,-8115.0],[-7855.0,-8120.0],[-7860.0,-8120.0],[-7865.0,-8120.0]]],[[[-7865.0,-8115.0],[-7870.0,-8115.0],[-7870.0,-8110.0],[-7865.0,-8110.0],[-7865.0,-8115.0]]],[[[-7875.0,-8110.0],[-7880.0,-8110.0],[-7880.0,-8105.0],[-7875.0,-8105.0],[-7870.0,-8105.0],[-7870.0,-8110.0],[-7875.0,-8110.0]]],[[[-7880.0,-8105.0],[-7885.0,-8105.0],[-7890.0,-8105.0],[-7890.0,-8100.0],[-7885.0,-8100.0],[-7880.0,-8100.0],[-7880.0,-8105.0]]],[[[-7900.0,-8100.0],[-7900.0,-8095.0],[-7895.0,-8095.0],[-7890.0,-8095.0],[-7890.0,-8100.0],[-7895.0,-8100.0],[-7900.0,-8100.0]]],[[[-7910.0,-8095.0],[-7910.0,-8090.0],[-7905.0,-8090.0],[-7900.0,-8090.0],[-7900.0,-8095.0],[-7905.0,-8095.0],[-7910.0,-8095.0]]],[[[-7915.0,-8085.0],[-7910.0,-8085.0],[-7910.0,-8090.0],[-7915.0,-8090.0],[-7915.0,-8085.0]]],[[[-7925.0,-8080.0],[-7920.0,-8080.0],[-7920.0,-8085.0],[-7925.0,-8085.0],[-7925.0,-8080.0]]],[[[-7955.0,-8070.0],[-7960.0,-8070.0],[-7965.0,-8070.0],[-7970.0,-8070.0],[-7970.0,-8065.0],[-7975.0,-8065.0],[-7980.0,-8065.0],[-7980.0,-8060.0],[-7980.0,-8055.0],[-7975.0,-8055.0],[-7970.0,-8055.0],[-7970.0,-8060.0],[-7965.0,-8060.0],[-7960.0,-8060.0],[-7955.0,-8060.0],[-7955.0,-8065.0],[-7950.0,-8065.0],[-7945.0,-8065.0],[-7945.0,-8070.0],[-7940.0,-8070.0],[-7935.0,-8070.0],[-7935.0,-8075.0],[-7930.0,-8075.0],[-7930.0,-8080.0],[-7935.0,-8080.0],[-7940.0,-8080.0],[-7945.0,-8080.0],[-7945.0,-8075.0],[-7950.0,-8075.0],[-7955.0,-8075.0],[-7955.0,-8070.0]]]]}},{"type":"Feature","properties":{"role":"mapped-foundation-island","name":"Ma Wan tower island"},"geometry":{"type":"Polygon","coordinates":[[[-9451.9411,-6779.05077],[-9444.89019,-6782.04733],[-9437.22569,-6786.32351],[-9431.45027,-6790.16439],[-9425.67081,-6794.66012],[-9420.4344,-6799.5558],[-9416.70539,-6804.22599],[-9414.30793,-6808.60749],[-9412.29677,-6813.06979],[-9409.58323,-6820.26094],[-9407.46472,-6827.99375],[-9406.12042,-6834.51052],[-9404.82122,-6842.7603],[-9404.35349,-6847.78279],[-9404.14749,-6854.79488],[-9404.75995,-6863.74711],[-9404.79803,-6864.6599],[-9406.28976,-6869.65032],[-9410.01194,-6882.10254],[-9411.35807,-6886.60589],[-9415.08125,-6899.06141],[-9416.53989,-6903.94116],[-9423.85103,-6914.68762],[-9424.23986,-6915.20518],[-9424.7799,-6915.99519],[-9429.85629,-6922.68501],[-9430.37189,-6923.31766],[-9434.27054,-6927.62711],[-9438.69719,-6931.88179],[-9439.16119,-6932.24634],[-9439.74212,-6932.79503],[-9443.15285,-6935.61388],[-9446.7287,-6938.19195],[-9450.81204,-6940.70776],[-9454.07286,-6942.45097],[-9458.67611,-6944.60252],[-9463.8259,-6946.47171],[-9471.21631,-6948.53887],[-9478.76641,-6949.93217],[-9480.32296,-6975.99385],[-9509.01386,-6974.25957],[-9507.55719,-6949.10302],[-9513.36194,-6947.51214],[-9519.39055,-6944.92336],[-9526.99398,-6940.53455],[-9533.24128,-6936.08042],[-9538.05232,-6931.93292],[-9543.19247,-6926.46189],[-9543.47977,-6926.18419],[-9550.10921,-6917.44314],[-9552.69043,-6913.20521],[-9554.74573,-6908.74929],[-9557.22457,-6900.34314],[-9557.26076,-6900.11427],[-9557.67105,-6898.01042],[-9558.72592,-6892.14091],[-9559.11026,-6888.41762],[-9559.07183,-6883.84097],[-9558.78268,-6880.65542],[-9558.69388,-6880.17488],[-9558.00368,-6874.94029],[-9556.40115,-6866.71279],[-9555.55457,-6863.15405],[-9555.41588,-6862.43576],[-9554.06709,-6857.51584],[-9550.62945,-6844.97649],[-9549.38641,-6840.44229],[-9545.94889,-6827.90339],[-9544.5727,-6822.88351],[-9544.36857,-6822.3887],[-9541.40816,-6814.79558],[-9538.04706,-6807.8196],[-9534.11713,-6801.17919],[-9530.24636,-6795.87343],[-9526.05644,-6791.84906],[-9520.67019,-6787.77001],[-9516.30446,-6785.02567],[-9509.79513,-6781.57934],[-9504.97883,-6779.54939],[-9500.17967,-6777.74859],[-9495.97699,-6776.50598],[-9486.31979,-6774.44306],[-9485.76707,-6774.41211],[-9480.52604,-6773.84032],[-9474.78251,-6773.63759],[-9471.01787,-6773.94342],[-9466.72447,-6774.78825],[-9456.12549,-6777.71537],[-9451.9411,-6779.05077]]]}},{"type":"Feature","properties":{"role":"mapped-foundation-island","name":"Central tower island"},"geometry":{"type":"Polygon","coordinates":[[[-8232.52052,-8442.1491],[-8232.39065,-8442.21789],[-8215.93715,-8450.92401],[-8215.76675,-8451.01417],[-8211.08624,-8453.49067],[-8211.04668,-8453.5116],[-8194.54137,-8462.24495],[-8194.45099,-8462.29277],[-8183.77242,-8467.9432],[-8178.71303,-8472.84553],[-8174.88615,-8478.35894],[-8173.54015,-8484.14864],[-8173.8407,-8490.22592],[-8175.32664,-8494.9562],[-8179.4046,-8502.52186],[-8170.47447,-8506.82456],[-8176.78485,-8519.67897],[-8184.76475,-8515.84527],[-8194.37135,-8532.8753],[-8200.69142,-8536.77127],[-8206.78275,-8538.04105],[-8213.58299,-8537.46081],[-8221.59316,-8535.59085],[-8229.07656,-8532.50774],[-8229.10745,-8532.49194],[-8245.72057,-8523.99489],[-8245.72412,-8523.99308],[-8250.0,-8521.8061],[-8250.69333,-8521.3967],[-8267.19574,-8512.87996],[-8282.40286,-8505.28744],[-8284.60461,-8503.19466],[-8286.14978,-8500.86632],[-8286.91178,-8499.08832],[-8287.39862,-8496.80231],[-8287.54679,-8494.17764],[-8284.4829,-8482.57035],[-8283.59082,-8478.3872],[-8278.04693,-8463.57042],[-8268.20081,-8444.99323],[-8260.32634,-8436.85615],[-8252.92423,-8435.75921],[-8250.0,-8436.01393],[-8245.44408,-8436.41079],[-8240.92756,-8437.69632],[-8232.52052,-8442.1491]]]}}]}
