{"features":[{"geometry":{"coordinates":[[[1030.7763671875,-2093.0830078125],[1030.4853515625,-2091.8994140625],[1030.5319453916213,-2091.887416967462],[1030.5341796875,-2091.88671875],[1030.5858193173585,-2091.873545375036],[1031.1534234477167,-2091.727397251469],[1031.54296875,-2091.626953125],[1032.5361328125,-2091.37109375],[1032.642421648353,-2091.3440062904474],[1032.8941930140825,-2091.279179572844],[1032.896484375,-2091.2783203125],[1034.3902440098213,-2090.8938261980024],[1034.4443359375,-2090.8798828125],[1034.469871375949,-2090.873306796578],[1034.470703125,-2090.873046875],[1034.5416666664012,-2090.8548177084017],[1036.1962890625,-2090.4287109375],[1037.7593765913448,-2090.0264753407823],[1038.1349267187252,-2089.929782420704],[1043.5173262948992,-2088.5439087875266],[1043.5283203125,-2088.541015625],[1043.8601088833432,-2088.4556482738813],[1044.1904668695288,-2088.3705868777356],[1044.19140625,-2088.3701171875],[1044.205338987589,-2088.366531999143],[1044.2138671875,-2088.3642578125],[1044.232421875,-2088.359375],[1045.2490234375,-2088.09765625],[1045.2912911982032,-2088.086964010138],[1046.2021484375,-2087.8525390625],[1046.2255859375,-2087.8466796875],[1046.2333984375,-2087.8447265625],[1046.8037109375,-2090.177734375],[1047.25,-2092.0029296875],[1046.4274847740928,-2092.2034276408403],[1046.419921874796,-2092.2052734375497],[1046.201171875,-2092.2587890625],[1045.705078125,-2092.3798828125],[1045.236328125,-2092.494140625],[1045.2237383868244,-2092.4971381817086],[1045.2080078125,-2092.5009765625],[1045.1943359375,-2092.50390625],[1045.1836062434106,-2092.4597779065734],[1043.0986328125,-2092.9736328125],[1039.3330078125,-2093.900390625],[1039.3227027145438,-2093.858457899215],[1038.326171875,-2094.0966796875],[1038.34375,-2094.173828125],[1034.805754527866,-2095.0361954424097],[1034.7822265625,-2095.0419921875],[1034.6732763949842,-2095.068486272901],[1033.8491077698636,-2095.269372930879],[1033.8486328125,-2095.26953125],[1033.8453534606776,-2095.2702880234974],[1033.81640625,-2095.27734375],[1033.916015625,-2095.7109375],[1033.9267578125,-2095.759765625],[1031.7626953125,-2096.29296875],[1031.578125,-2096.337890625],[1031.4580078125,-2095.8515625],[1030.7880859375,-2093.1318359375],[1030.7763671875,-2093.0830078125]],[[1038.3017578125,-2094.18359375],[1036.5595703125,-2094.6083984375],[1036.466796875,-2094.630859375],[1036.18359375,-2094.7001953125],[1038.34375,-2094.173828125],[1038.3017578125,-2094.18359375]],[[1033.832965353257,-2095.273097826088],[1033.822265625,-2095.275390625],[1033.81640625,-2095.27734375],[1033.832965353257,-2095.273097826088]],[[1032.896484375,-2091.279296875],[1032.9003177322982,-2091.2782514139185],[1032.888671875,-2091.28125],[1032.896484375,-2091.279296875]],[[1030.5341796875,-2091.8876953125],[1030.551049390878,-2091.88321967691],[1030.5185546875,-2091.8916015625],[1030.5341796875,-2091.8876953125]],[[1030.9526311490613,-2093.5899015695313],[1031.5068359375,-2095.83984375],[1030.952631149002,-2093.58990156929],[1030.9526311490035,-2093.5899015692967],[1030.9526311490613,-2093.5899015695313]],[[1032.533665420963,-2091.3727051554683],[1032.5336654209625,-2091.3727051554683],[1031.505859375,-2092.0439453125],[1032.533665420963,-2091.3727051554683]],[[1036.1318359375,-2090.4462890625],[1036.1378660611565,-2090.444644483321],[1036.119546360136,-2090.449361456841],[1036.1318359375,-2090.4462890625]],[[1046.759398809012,-2090.1383258018327],[1046.7593988090123,-2090.138325801833],[1046.7593988090123,-2090.1383258018327],[1046.759398809012,-2090.1383258018323],[1046.759398809012,-2090.1383258018327]]],"type":"Polygon"},"properties":{"role":"all-original-projection"},"type":"Feature"},{"geometry":{"coordinates":[[[1045.053,-2093.054],[1033.957,-2095.758],[1032.444,-2096.128],[1031.929,-2096.254],[1031.899,-2096.129],[1031.356,-2093.915],[1033.146,-2093.399],[1032.845,-2092.158],[1032.694,-2091.536],[1043.97,-2088.633],[1044.833,-2092.158],[1045.053,-2093.054]]],"type":"Polygon"},"properties":{"role":"all-group-target"},"type":"Feature"},{"geometry":{"coordinates":[[[[1033.957,-2095.758],[1032.444,-2096.128],[1031.929,-2096.254],[1031.9285452032136,-2096.252105013389],[1033.9267578125,-2095.759765625],[1033.916015625,-2095.7109375],[1033.81640625,-2095.27734375],[1033.8453534606776,-2095.2702880234974],[1033.8486328125,-2095.26953125],[1033.8491077698636,-2095.269372930879],[1034.6732763949842,-2095.068486272901],[1034.7822265625,-2095.0419921875],[1034.805754527866,-2095.0361954424097],[1038.34375,-2094.173828125],[1038.326171875,-2094.0966796875],[1039.3227027145438,-2093.858457899215],[1039.3330078125,-2093.900390625],[1043.0986328125,-2092.9736328125],[1044.9228750947066,-2092.5240367493498],[1045.053,-2093.054],[1033.957,-2095.758]]],[[[1036.18359375,-2094.7001953125],[1036.466796875,-2094.630859375],[1036.5595703125,-2094.6083984375],[1038.3017578125,-2094.18359375],[1038.34375,-2094.173828125],[1036.18359375,-2094.7001953125]]],[[[1033.822265625,-2095.275390625],[1033.832965353257,-2095.273097826088],[1033.81640625,-2095.27734375],[1033.822265625,-2095.275390625]]]],"type":"MultiPolygon"},"properties":{"role":"uncovered-target"},"type":"Feature"},{"geometry":{"coordinates":[[[1030.4853515625,-2091.8994140625],[1030.5319453916213,-2091.887416967462],[1030.5341796875,-2091.88671875],[1030.5858193173585,-2091.873545375036],[1031.1534234477167,-2091.727397251469],[1031.54296875,-2091.626953125],[1032.5361328125,-2091.37109375],[1032.642421648353,-2091.3440062904474],[1032.8941930140825,-2091.279179572844],[1032.896484375,-2091.2783203125],[1034.3902440098213,-2090.8938261980024],[1034.4443359375,-2090.8798828125],[1034.469871375949,-2090.873306796578],[1034.470703125,-2090.873046875],[1034.5416666664012,-2090.8548177084017],[1036.1962890625,-2090.4287109375],[1037.7593765913448,-2090.0264753407823],[1038.1349267187252,-2089.929782420704],[1043.5173262948992,-2088.5439087875266],[1043.5283203125,-2088.541015625],[1043.8601088833432,-2088.4556482738813],[1044.1904668695288,-2088.3705868777356],[1044.19140625,-2088.3701171875],[1044.205338987589,-2088.366531999143],[1044.2138671875,-2088.3642578125],[1044.232421875,-2088.359375],[1045.2490234375,-2088.09765625],[1045.2912911982032,-2088.086964010138],[1046.2021484375,-2087.8525390625],[1046.2255859375,-2087.8466796875],[1046.2333984375,-2087.8447265625],[1046.8037109375,-2090.177734375],[1047.25,-2092.0029296875],[1046.4274847740928,-2092.2034276408403],[1046.419921874796,-2092.2052734375497],[1046.201171875,-2092.2587890625],[1045.705078125,-2092.3798828125],[1045.236328125,-2092.494140625],[1045.2237383868244,-2092.4971381817086],[1045.2080078125,-2092.5009765625],[1045.1943359375,-2092.50390625],[1045.1836062434106,-2092.4597779065734],[1044.9228750947066,-2092.5240367493498],[1044.833,-2092.158],[1043.97,-2088.633],[1032.694,-2091.536],[1032.845,-2092.158],[1033.146,-2093.399],[1031.356,-2093.915],[1031.899,-2096.129],[1031.9285452032136,-2096.252105013389],[1031.7626953125,-2096.29296875],[1031.578125,-2096.337890625],[1031.4580078125,-2095.8515625],[1030.7880859375,-2093.1318359375],[1030.7763671875,-2093.0830078125],[1030.4853515625,-2091.8994140625]],[[1032.9003177322982,-2091.2782514139185],[1032.888671875,-2091.28125],[1032.896484375,-2091.279296875],[1032.9003177322982,-2091.2782514139185]],[[1030.551049390878,-2091.88321967691],[1030.5185546875,-2091.8916015625],[1030.5341796875,-2091.8876953125],[1030.551049390878,-2091.88321967691]],[[1031.5068359375,-2095.83984375],[1030.952631149002,-2093.58990156929],[1030.9526311490035,-2093.5899015692967],[1030.9526311490613,-2093.5899015695313],[1031.5068359375,-2095.83984375]],[[1032.5336654209625,-2091.3727051554683],[1031.505859375,-2092.0439453125],[1032.533665420963,-2091.3727051554683],[1032.5336654209625,-2091.3727051554683]],[[1036.1378660611565,-2090.444644483321],[1036.119546360136,-2090.449361456841],[1036.1318359375,-2090.4462890625],[1036.1378660611565,-2090.444644483321]],[[1046.7593988090123,-2090.138325801833],[1046.7593988090123,-2090.1383258018327],[1046.759398809012,-2090.1383258018323],[1046.759398809012,-2090.1383258018327],[1046.7593988090123,-2090.138325801833]]],"type":"Polygon"},"properties":{"role":"all-source-excess"},"type":"Feature"}],"type":"FeatureCollection"}
