{"coordinateFrame":"viewer x=East-834500,z=816500-North,metres","features":[{"geometry":{"coordinates":[[[534.6240234375,-3960.11328125],[534.6201171875,-3960.11328125],[534.658203125,-3957.470703125],[537.8837890625,-3957.5322265625],[537.8837890625,-3957.54296875],[537.8834767663296,-3957.550463858088],[537.8504083806779,-3959.4815727894206],[537.8447265625,-3959.8173828125],[537.837890625,-3960.212890625],[537.8212890625,-3961.1953125],[537.8091337316201,-3961.8919064619618],[537.7895425052956,-3963.0359838453996],[537.787109375,-3963.18359375],[537.78515625,-3963.2958984375],[537.7850713683042,-3963.2970867812405],[537.7314453125,-3966.4287109375],[537.7308946616082,-3966.459704716269],[537.7109375,-3967.625],[537.7061717156436,-3967.9037819511104],[537.70560435557,-3967.9380667098417],[537.705078125,-3967.984375],[537.703125,-3968.087890625],[537.7029896716941,-3968.0899205495875],[537.6716932200146,-3969.9206550540357],[537.66015625,-3970.6015625],[537.65625,-3970.8251953125],[537.6557499152073,-3970.853283408362],[537.5779352226546,-3975.4051745961688],[537.5771484375,-3975.45122153072],[537.5771484375,-3975.4521484375],[537.5771484375,-3975.455078125],[537.5771484375,-3975.4560546875],[537.576581526466,-3975.4844002391974],[537.5693359375,-3975.9084514036003],[537.5693359375,-3975.91015625],[537.5693359375,-3975.9111328125],[537.5692876459478,-3975.9112776871566],[537.521484375,-3978.708984375],[537.5207868303571,-3978.7117745535716],[537.5205078125,-3978.73046875],[535.2353515625,-3978.6474609375],[534.7890625,-3978.6318359375],[533.25390625,-3978.578125],[532.236328125,-3978.5419921875],[531.7890625,-3978.525390625],[529.2373046875,-3978.4365234375],[528.7890625,-3978.4208984375],[528.5322265625,-3978.412109375],[528.5322265625,-3978.4111328125],[528.533203125,-3978.369140625],[528.5374106549199,-3978.127838784094],[528.5478515625,-3977.5126953125],[528.5624284707498,-3976.685124475954],[528.56640625,-3976.4525948660707],[528.56640625,-3976.44921875],[528.5673828125,-3976.3955078125],[528.5681229440787,-3976.3617084704047],[528.5751953125,-3975.9501953125],[528.5758737092773,-3975.91111965813],[528.443359375,-3975.9052734375],[528.4609375,-3975.478515625],[528.4610543038295,-3975.4785202600724],[528.4658826357734,-3975.362356273895],[528.7265625,-3967.3193359375],[528.732421875,-3966.98046875],[528.7704109633264,-3964.8066486957646],[528.7744140625,-3964.57421875],[528.7939453125,-3963.4599609375],[528.802734375,-3962.94921875],[528.8102144281916,-3962.5251412898883],[528.8134765625,-3962.3359375],[528.8212890625,-3961.8896484375],[528.8525390625,-3960.111328125],[528.8671875,-3959.2783203125],[528.8720703125,-3959.001953125],[528.8720852789752,-3959.001234734188],[528.8994140625,-3957.4462890625],[528.9072265625,-3957.005859375],[528.9072265625,-3957.001953125],[528.9072265625,-3956.99609375],[528.9079241071428,-3956.9800502232156],[528.908203125,-3956.9697265625],[533.591796875,-3957.1484375],[534.0234375,-3957.1650390625],[533.9150390625,-3959.435546875],[533.8876953125,-3959.435546875],[533.8993496593248,-3961.880270243551],[534.5608239117602,-3961.9097061254815],[534.6240234375,-3960.11328125]],[[535.0395187840589,-3975.8139278172703],[535.3525390625,-3975.8251953125],[534.9759674956862,-3975.8115595365193],[535.0395187840589,-3975.8139278172703]],[[528.7186327081041,-3967.792267608522],[528.71875,-3967.7900390625],[528.71875,-3967.7855714352568],[528.7186327081041,-3967.792267608522]],[[533.349609375,-3961.5625],[533.4459215096551,-3961.860035701703],[533.4459215096554,-3961.860035701703],[533.349609375,-3961.5625]]],"type":"Polygon"},"properties":{"role":"complete-FBX-projection"},"type":"Feature"},{"geometry":{"coordinates":[[[528.763,-3965.261],[529.629,-3965.294],[529.721,-3960.283],[532.949,-3960.397],[532.953,-3963.056],[533.498,-3963.077],[533.573,-3958.354],[535.133,-3958.41],[535.111,-3960.541],[537.632,-3960.629],[537.542,-3965.591],[538.203,-3965.616],[538.023,-3976.117],[535.501,-3976.023],[533.296,-3975.942],[528.579,-3975.766],[528.763,-3965.261]]],"type":"Polygon"},"properties":{"role":"full-current-target"},"type":"Feature"},{"geometry":{"coordinates":[[[[534.6449181052393,-3958.39247911147],[534.6201171875,-3960.11328125],[534.6240234375,-3960.11328125],[534.5608239117602,-3961.9097061254815],[533.8993496593248,-3961.880270243551],[533.8876953125,-3959.435546875],[533.9150390625,-3959.435546875],[533.9660006739381,-3958.3681077165],[534.6449181052393,-3958.39247911147]]],[[[538.203,-3965.616],[538.023,-3976.117],[537.5660635535331,-3976.0999690618687],[537.5692876459478,-3975.9112776871566],[537.5693359375,-3975.9111328125],[537.5693359375,-3975.91015625],[537.5693359375,-3975.9084514036003],[537.576581526466,-3975.4844002391974],[537.5771484375,-3975.4560546875],[537.5771484375,-3975.455078125],[537.5771484375,-3975.4521484375],[537.5771484375,-3975.45122153072],[537.5779352226546,-3975.4051745961688],[537.6557499152073,-3970.853283408362],[537.65625,-3970.8251953125],[537.66015625,-3970.6015625],[537.6716932200146,-3969.9206550540357],[537.7029896716941,-3968.0899205495875],[537.703125,-3968.087890625],[537.705078125,-3967.984375],[537.70560435557,-3967.9380667098417],[537.7061717156436,-3967.9037819511104],[537.7109375,-3967.625],[537.7308946616082,-3966.459704716269],[537.7314453125,-3966.4287109375],[537.7456584069937,-3965.598702662897],[538.203,-3965.616]]],[[[528.71875,-3967.787338315218],[528.71875,-3967.7900390625],[528.7186791000856,-3967.791386160873],[528.71875,-3967.787338315218]]],[[[534.9759674956862,-3975.8115595365193],[535.3525390625,-3975.8251953125],[535.0395187840589,-3975.8139278172703],[534.9759674956862,-3975.8115595365193]]]],"type":"MultiPolygon"},"properties":{"role":"uncovered-target"},"type":"Feature"},{"geometry":{"coordinates":[[[[534.658203125,-3957.470703125],[537.8837890625,-3957.5322265625],[537.8837890625,-3957.54296875],[537.8834767663296,-3957.550463858088],[537.8504083806779,-3959.4815727894206],[537.8447265625,-3959.8173828125],[537.837890625,-3960.212890625],[537.8212890625,-3961.1953125],[537.8091337316201,-3961.8919064619618],[537.7895425052956,-3963.0359838453996],[537.787109375,-3963.18359375],[537.78515625,-3963.2958984375],[537.7850713683042,-3963.2970867812405],[537.7456584069937,-3965.598702662897],[537.542,-3965.591],[537.632,-3960.629],[535.111,-3960.541],[535.133,-3958.41],[534.6449181052393,-3958.39247911147],[534.658203125,-3957.470703125]]],[[[537.521484375,-3978.708984375],[537.5207868303571,-3978.7117745535716],[537.5205078125,-3978.73046875],[535.2353515625,-3978.6474609375],[534.7890625,-3978.6318359375],[533.25390625,-3978.578125],[532.236328125,-3978.5419921875],[531.7890625,-3978.525390625],[529.2373046875,-3978.4365234375],[528.7890625,-3978.4208984375],[528.5322265625,-3978.412109375],[528.5322265625,-3978.4111328125],[528.533203125,-3978.369140625],[528.5374106549199,-3978.127838784094],[528.5478515625,-3977.5126953125],[528.5624284707498,-3976.685124475954],[528.56640625,-3976.4525948660707],[528.56640625,-3976.44921875],[528.5673828125,-3976.3955078125],[528.5681229440787,-3976.3617084704047],[528.5751953125,-3975.9501953125],[528.5758737092773,-3975.91111965813],[528.443359375,-3975.9052734375],[528.4609375,-3975.478515625],[528.4610543038295,-3975.4785202600724],[528.4658826357734,-3975.362356273895],[528.7265625,-3967.3193359375],[528.732421875,-3966.98046875],[528.7704109633264,-3964.8066486957646],[528.7744140625,-3964.57421875],[528.7939453125,-3963.4599609375],[528.802734375,-3962.94921875],[528.8102144281916,-3962.5251412898883],[528.8134765625,-3962.3359375],[528.8212890625,-3961.8896484375],[528.8525390625,-3960.111328125],[528.8671875,-3959.2783203125],[528.8720703125,-3959.001953125],[528.8720852789752,-3959.001234734188],[528.8994140625,-3957.4462890625],[528.9072265625,-3957.005859375],[528.9072265625,-3957.001953125],[528.9072265625,-3956.99609375],[528.9079241071428,-3956.9800502232156],[528.908203125,-3956.9697265625],[533.591796875,-3957.1484375],[534.0234375,-3957.1650390625],[533.9660006739381,-3958.3681077165],[533.573,-3958.354],[533.498,-3963.077],[532.953,-3963.056],[532.949,-3960.397],[529.721,-3960.283],[529.629,-3965.294],[528.763,-3965.261],[528.71875,-3967.787338315218],[528.71875,-3967.7855714352568],[528.7186327081041,-3967.792267608522],[528.7186791000856,-3967.791386160873],[528.579,-3975.766],[533.296,-3975.942],[535.501,-3976.023],[537.5660635535331,-3976.0999690618687],[537.521484375,-3978.708984375]],[[533.4459215096551,-3961.860035701703],[533.4459215096554,-3961.860035701703],[533.349609375,-3961.5625],[533.4459215096551,-3961.860035701703]]]],"type":"MultiPolygon"},"properties":{"role":"source-excess"},"type":"Feature"},{"geometry":{"coordinates":[[[528.4609375,-3975.478515625],[528.4610543038295,-3975.4785202600724],[528.4658826357734,-3975.362356273895],[528.7265625,-3967.3193359375],[528.732421875,-3966.98046875],[528.762471182344,-3965.260980607533],[528.763,-3965.261],[528.71875,-3967.787338315218],[528.71875,-3967.7855714352568],[528.7186327081041,-3967.792267608522],[528.7186791000856,-3967.791386160873],[528.579,-3975.766],[528.4492939531934,-3975.7611950669143],[528.4609375,-3975.478515625]]],"type":"Polygon"},"properties":{"role":"unrelated-overlap"},"type":"Feature"},{"geometry":{"coordinates":[],"type":"Polygon"},"properties":{"role":"FBX-glTF-symmetric-difference"},"type":"Feature"}],"type":"FeatureCollection"}
