{"type":"FeatureCollection","features":[{"type":"Feature","id":195703,"geometry":{"type":"Polygon","coordinates":[[[114.17680270241493,22.251914924882776],[114.17680247928324,22.251924407085429],[114.17680214943707,22.251933880257418],[114.17680173227903,22.251943362460054],[114.17680122780914,22.251952826601297],[114.17680062632601,22.251962290742551],[114.17679992782963,22.251971754883737],[114.17679914202134,22.251981209994256],[114.1767982591998,22.251990656074064],[114.17666652472212,22.252256600170575],[114.17666214941163,22.252263896946687],[114.1766565032264,22.252270597697212],[114.17664975108936,22.252276431502128],[114.17664214523556,22.252281163564213],[114.17663399610807,22.252284685515672],[114.1764625160951,22.252344169154938],[114.1764535024748,22.252346979568998],[114.17644430569436,22.252349227371447],[114.17643497299942,22.25235089802301],[114.17642553359114,22.252351990710974],[114.17641604567775,22.252352487374136],[114.17640653836334,22.252352397043229],[114.17639706015476,22.252351719718348],[114.17638764985747,22.252350455399668],[114.17637834627698,22.252348613117903],[114.17637722092221,22.2523483512254],[114.17637819110881,22.252331816073536],[114.17636279508669,22.252330425307445],[114.17635033857343,22.252328266941674],[114.17633817310418,22.252325115202243],[114.1763263277831,22.252320997181339],[114.17631485111629,22.252316138645863],[114.17614797872866,22.252244515801351],[114.1760867537472,22.25221823628813],[114.175828398353,22.252107338293587],[114.17583409311133,22.252095860348074],[114.17582689475095,22.252092771815192],[114.17581624273619,22.252087389470638],[114.17580720115882,22.252079659161517],[114.17580052671872,22.252070050487692],[114.17579665597044,22.252059204629678],[114.17579584114296,22.252047780828107],[114.17579813073652,22.252036546690235],[114.17580340832983,22.25202616145403],[114.17581114034355,22.252017483029423],[114.17590630116737,22.251926851799524],[114.17591526522678,22.251919582161218],[114.17592600461147,22.251914470862214],[114.17593777231775,22.251911987492861],[114.1759378208243,22.251911987493138],[114.17594996693778,22.251900419271699],[114.17594182758484,22.251893014078853],[114.17600998936356,22.251828111014824],[114.17601684822311,22.251821726365868],[114.17602405632709,22.251815675853091],[114.17603158457149,22.251809986568336],[114.17603942325495,22.251804658511503],[114.17604754327347,22.251799718774425],[114.17605592522445,22.251795176387635],[114.17606454970519,22.251791049412326],[114.17607339731319,22.251787337848388],[114.17608243894448,22.251784059756982],[114.17609164549518,22.251781224168624],[114.17610099756276,22.251778831083183],[114.17611047574466,22.251776889531232],[114.17612004123563,22.251775417573906],[114.17612968433463,22.251774397149841],[114.17613936623634,22.251773855350823],[114.17614906753843,22.251773765084799],[114.17615875913691,22.251774153443627],[114.17616227760354,22.251774466190081],[114.17616841192806,22.251775011396518],[114.17617801621074,22.251776320882115],[114.17618752347848,22.251778099961594],[114.17619692403008,22.251780330573538],[114.17620618876175,22.251783021748587],[114.17621528856976,22.251786146394615],[114.17622420405158,22.251789704511573],[114.17623315833936,22.251793181352163],[114.17624240366978,22.251795917678404],[114.17625187213369,22.251797877367359],[114.1762614861204,22.251799087510715],[114.17627118742247,22.251799421678843],[114.17628087902621,22.251798997270139],[114.17629049302249,22.251797778161702],[114.17629996150183,22.251795818537317],[114.17630917775013,22.25179300099801],[114.17631811266284,22.251789479065085],[114.17632667892819,22.251785225646337],[114.1763347989355,22.251780294925553],[114.17634242417809,22.251774713994692],[114.17634948674662,22.251768528006988],[114.17635593813448,22.251761773085029],[114.17636172013361,22.251754530504748],[114.17636679393875,22.251746827358126],[114.17637112074451,22.251738744921134],[114.17637465204433,22.251730337377694],[114.17637737813683,22.251721667942558],[114.17637926991799,22.251712808861015],[114.17638030798518,22.251703832378396],[114.17638049233834,22.251694801709423],[114.17637982297741,22.251685789099433],[114.176378290201,22.251676875824391],[114.17633994160127,22.251497174419811],[114.17633862224864,22.251490861977729],[114.17633724469755,22.251481921610562],[114.1763368575358,22.251477193511956],[114.17633650743139,22.251472918030625],[114.1763364298525,22.251463887360657],[114.17633698285672,22.251454874753907],[114.17633819554769,22.251445907302465],[114.17634003882122,22.251437048220929],[114.17634251267715,22.251428315570628],[114.17634559771267,22.251419754504798],[114.17634930362881,22.251411401146118],[114.17635359162021,22.251403300647802],[114.17635845198546,22.251395489132452],[114.17636385562052,22.251387993691935],[114.17636978312269,22.25138084141814],[114.17637621508929,22.251374086495009],[114.17638312241637,22.25136773795305],[114.1763904565975,22.251361831914746],[114.17639819823006,22.251356395472023],[114.1764063182102,22.251351446686094],[114.17641477773277,22.251347012648758],[114.17642352829142,22.25134312045191],[114.17643299674262,22.251339625605802],[114.17643844881866,22.251353704433217],[114.17645598872822,22.251350462463527],[114.17644007884522,22.251275914246456],[114.17643851696523,22.251267154492876],[114.17643869161282,22.251258123823341],[114.17644079681163,22.251249309894423],[114.17644473554773,22.251241055871311],[114.17645037200221,22.251233704919034],[114.17645745394137,22.25122753698761],[114.17646559331375,22.251222886210773],[114.17646559331378,22.251222877180101],[114.17663071862654,22.251147977084297],[114.17664105046988,22.251145656214124],[114.17665155693115,22.25114692051952],[114.17666105445753,22.251151769999229],[114.17666794234275,22.251159391891612],[114.17667138627968,22.251168675423763],[114.17668810147435,22.251246989409278],[114.17669951986554,22.251244876241717],[114.17680124725128,22.251721406668896],[114.1767893825632,22.251723601119377],[114.17678953778375,22.251724513217013],[114.17679042059908,22.251735864768737],[114.17679027507677,22.251747216320179],[114.17678910121658,22.251758558840709],[114.1767869184209,22.251769729778292],[114.17678373639082,22.251780720102182],[114.17678272745461,22.251783311904024],[114.17679697866646,22.251789425670339],[114.17679724060115,22.251791836859091],[114.17679822043092,22.251801273908765],[114.1767991032478,22.251810719989066],[114.17679989875302,22.251820175100022],[114.1768005972453,22.251829630210938],[114.17680119872462,22.251839094352501],[114.17680171289228,22.251848567524689],[114.17680213974823,22.25185804069687],[114.17680245988981,22.251867522899698],[114.176802702421,22.251876996071822],[114.17680283823783,22.251886478274596],[114.17680288674286,22.251895960477352],[114.17680284793612,22.251905442680069],[114.17680270241493,22.251914924882776]]]},"properties":{"OBJECTID":195703,"Shape_Length":401.95303883379444,"Shape_Area":7276.7553635843196,"GeoRefNo":"3620912586","DateCreate":1456358400000,"BuildingBlockType":"Podium","BuildingCSUID":"3620912586P20160225","BuildingID":1810149443,"Status":"Active","BuildingNameEN":"Podium","BuildingNameTC":"平台","BaseHeight":18,"TopHeight":37.200000000000003,"Storeys":5,"StoreysInBasement":1,"DateStamp":1599609600000}},{"type":"Feature","id":241523,"geometry":{"type":"Polygon","coordinates":[[[114.1562352576247,22.318520889003814],[114.15624283907663,22.318492613728871],[114.15621696191961,22.318473111309729],[114.15627275191295,22.318409027717646],[114.15628501524382,22.318394941362993],[114.1562938423981,22.318384802025964],[114.15631745864975,22.318392400468163],[114.15651179993007,22.318437510182541],[114.15650574988646,22.318460072366005],[114.15657855133287,22.318476970313007],[114.15657174314198,22.318580201413777],[114.15656183225505,22.31868318095519],[114.15641613721385,22.318707064133839],[114.15633187305416,22.318720876995911],[114.15631617729844,22.318637989141802],[114.15629670383341,22.318535151680972],[114.1562352576247,22.318520889003814]]]},"properties":{"OBJECTID":241523,"Shape_Length":127.12925412730785,"Shape_Area":916.56420519483777,"GeoRefNo":"3415819951","DateCreate":1329955200000,"BuildingBlockType":"Tower","BuildingCSUID":"3415819951T20120223","BuildingID":1810079785,"Status":"Active","BuildingNameEN":"Imperial Seacoast","BuildingNameTC":"觀海鑽","BaseHeight":24.5,"TopHeight":148,"Storeys":40,"StoreysInBasement":null,"DateStamp":1599609600000}},{"type":"Feature","id":258252,"geometry":{"type":"Polygon","coordinates":[[[114.1565785512358,22.31847697022268],[114.15657174309479,22.318580201367936],[114.15656183225505,22.31868318095519],[114.15655990681861,22.318722672408409],[114.15633187305416,22.318720876995911],[114.15629670383341,22.318535151680972],[114.15620096642829,22.318536949260441],[114.15620094718457,22.318667892883255],[114.15601378021165,22.318667868963118],[114.15597144232488,22.318698528712893],[114.15590691251802,22.318698520398975],[114.15585805361765,22.318667848896428],[114.15575784487207,22.318667835904602],[114.15569099904995,22.318694918987951],[114.15564124359537,22.318694912493751],[114.15558523935454,22.318659754839967],[114.15552218660171,22.318620172332832],[114.15548298814967,22.318646662039058],[114.15550009926085,22.318668582447383],[114.15542376308603,22.3187201695936],[114.15537422503522,22.318720163046155],[114.15520354058889,22.318720140370889],[114.1552035580247,22.31860697076614],[114.15520246553196,22.31813825383913],[114.15520246667982,22.318130803598144],[114.15521314314823,22.318130805021809],[114.15521314522726,22.318117304282044],[114.1552295481635,22.318117306467943],[114.15522954889998,22.318112520252523],[114.15527836850129,22.318112526748532],[114.15527837056585,22.318099079379579],[114.15527837279932,22.31808453190348],[114.15531331492771,22.318084536543893],[114.15550888835276,22.318084562377603],[114.1556001235983,22.318084574348379],[114.15560691771232,22.318084575237762],[114.1559815979606,22.318084623844715],[114.1559974035934,22.318084625876132],[114.15618375643612,22.318084649710972],[114.15618373823941,22.318208368864973],[114.15618373598141,22.318223720876667],[114.15618372123795,22.318323960481614],[114.15618372077905,22.318327080552177],[114.15623341043312,22.318364528712259],[114.15626205878416,22.318383308104483],[114.15629284916389,22.318398319636959],[114.15632528864394,22.318409322987556],[114.15635153930235,22.318415416538294],[114.15634448703875,22.318441720867781],[114.15635943944544,22.318445191407697],[114.1563643727265,22.318426791289969],[114.15650574988646,22.318460072366005],[114.1565785512358,22.31847697022268]]]},"properties":{"OBJECTID":258252,"Shape_Length":459.62922828225368,"Shape_Area":7766.325034038081,"GeoRefNo":"3410619932","DateCreate":1329955200000,"BuildingBlockType":"Podium","BuildingCSUID":"3410619932P20120223","BuildingID":1810079787,"Status":"Active","BuildingNameEN":null,"BuildingNameTC":null,"BaseHeight":5.2999999999999998,"TopHeight":24.5,"Storeys":5,"StoreysInBasement":3,"DateStamp":1599609600000}},{"type":"Feature","id":313076,"geometry":{"type":"Polygon","coordinates":[[[114.15060243693186,22.330230790653555],[114.15056282741017,22.330257230207049],[114.15053299926328,22.330294415021044],[114.1504692286329,22.330248920511885],[114.15042515589363,22.330216253065213],[114.15039222003156,22.330193092833142],[114.15033590630053,22.330126961356935],[114.15033030794358,22.330120344366588],[114.15031907349574,22.330133695057235],[114.15028773851286,22.330110985149787],[114.1503194433586,22.3300698058286],[114.1500923669532,22.329905075999076],[114.15010099389492,22.329894783190653],[114.14998603649495,22.329761139210742],[114.14994199550829,22.329779428502132],[114.14988802852254,22.329666948154557],[114.14986706624853,22.329675653762227],[114.1498462353309,22.329632236674396],[114.14991554943035,22.329603451478402],[114.14993429645121,22.329595666616182],[114.14994047781211,22.329608550309324],[114.15000105002228,22.329586009267178],[114.15003083695959,22.329573441637649],[114.15004971034104,22.329559755605082],[114.15006636347709,22.329543440425816],[114.15008043353345,22.329524851570842],[114.15012666345741,22.329469400039176],[114.15013162544656,22.329463072856534],[114.15012226747633,22.32945628447084],[114.15013489191706,22.329441222635925],[114.15017505156301,22.329393306652957],[114.15018144785684,22.329385675056326],[114.1503007652481,22.329472232805873],[114.15035742858861,22.329448025841103],[114.1503401001771,22.329410390766405],[114.15031275268839,22.329388523796002],[114.15035475965698,22.329371321804253],[114.1503402213108,22.329341020469577],[114.15040953516504,22.32931223596411],[114.1504282821198,22.329304450141326],[114.15043378169408,22.329315912652607],[114.15058280205787,22.329254027693313],[114.15063762296263,22.32921410151846],[114.15063118638649,22.329209431666897],[114.15064380977974,22.329194369791651],[114.15069036640682,22.329138822064042],[114.15071255376384,22.329154918139416],[114.15079960218397,22.329258371147358],[114.15075592713409,22.329310481426262],[114.15100479399534,22.329606245756736],[114.15113620791799,22.329764607517792],[114.1511419907735,22.329760362074044],[114.15118251792995,22.329808143522921],[114.15113006661109,22.329846649834593],[114.15113986918911,22.329858391777513],[114.1511123024559,22.329878624578978],[114.15107739642828,22.32983676147574],[114.15106547829873,22.329845552388534],[114.15109016761345,22.329875402294871],[114.15101910625418,22.329927219942626],[114.15091789129322,22.32999993573862],[114.15087005531062,22.330035603578267],[114.15082081204187,22.330071706451847],[114.15080442912181,22.330094121168315],[114.15078508501702,22.330114036619463],[114.15076315653504,22.330131064868411],[114.15073907082495,22.330144874218643],[114.15071329705691,22.330155195675189],[114.15071184540172,22.330151112805549],[114.15060243693186,22.330230790653555]]]},"properties":{"OBJECTID":313076,"Shape_Length":444.76626583059772,"Shape_Area":8606.9859222978976,"GeoRefNo":"3351521183","DateCreate":1516579200000,"BuildingBlockType":"Podium","BuildingCSUID":"3351521183P20180122","BuildingID":1810171022,"Status":"Active","BuildingNameEN":"Market In","BuildingNameTC":"海達街市","BaseHeight":6.0999999999999996,"TopHeight":14.1,"Storeys":null,"StoreysInBasement":null,"DateStamp":1622764800000}}]}