{"type":"FeatureCollection","crs":{"type":"name","properties":{"name":"EPSG:2326"}},"features":[{"type":"Feature","id":195703,"geometry":{"type":"Polygon","coordinates":[[[836260.61600000039,812571.08200000226],[836260.59300000127,812572.13200000115],[836260.55900000036,812573.18100000173],[836260.51600000076,812574.23100000247],[836260.46400000062,812575.27900000103],[836260.4020000007,812576.32700000145],[836260.33000000101,812577.37500000186],[836260.24900000077,812578.42200000212],[836260.15800000075,812579.46800000221],[836246.57900000084,812608.9170000013],[836246.12800000049,812609.72500000149],[836245.54600000102,812610.46700000204],[836244.85000000056,812611.11300000176],[836244.06600000057,812611.63700000197],[836243.22600000072,812612.02700000256],[836225.55010000058,812618.61388000101],[836224.62099000067,812618.9250900019],[836223.67300000042,812619.17400000244],[836222.71100000106,812619.3590000011],[836221.73800000083,812619.48000000231],[836220.76000000071,812619.53500000201],[836219.78000000119,812619.52500000224],[836218.80300000124,812619.45000000112],[836217.83300000057,812619.31000000238],[836216.87400000077,812619.10600000247],[836216.75800000038,812619.07700000145],[836216.85800000094,812617.24600000121],[836215.27100000065,812617.09200000204],[836213.98700000066,812616.85300000198],[836212.73300000094,812616.50400000252],[836211.51200000104,812616.04800000228],[836210.32900000084,812615.51000000164],[836193.12800000049,812607.57900000177],[836186.81700000074,812604.66900000162],[836160.18600000069,812592.38900000229],[836160.77300000098,812591.11800000258],[836160.03100000042,812590.7760000024],[836158.93300000113,812590.18000000156],[836158.0010000011,812589.32400000095],[836157.31300000101,812588.26000000164],[836156.9140000008,812587.05900000222],[836156.83000000101,812585.79400000162],[836157.06600000057,812584.55000000261],[836157.61000000127,812583.40000000224],[836158.40700000059,812582.43900000118],[836168.21600000095,812572.40300000273],[836169.1400000006,812571.59800000116],[836170.24700000044,812571.03200000152],[836171.46000000089,812570.75700000115],[836171.46500000078,812570.75700000115],[836172.71700000111,812569.47600000165],[836171.87800000049,812568.65600000136],[836178.90400000103,812561.46900000237],[836179.6110000005,812560.76200000197],[836180.35400000121,812560.09200000204],[836181.13000000082,812559.46200000122],[836181.93800000101,812558.87200000137],[836182.77500000037,812558.32500000112],[836183.63900000043,812557.82200000249],[836184.52800000086,812557.36500000209],[836185.44000000041,812556.95400000177],[836186.37200000044,812556.59100000188],[836187.32100000046,812556.27700000256],[836188.28500000108,812556.01200000197],[836189.26200000104,812555.79700000212],[836190.2480000006,812555.63400000148],[836191.24200000055,812555.52100000158],[836192.24000000115,812555.46100000106],[836193.24000000115,812555.45100000128],[836194.23900000099,812555.49400000274],[836194.60168000124,812555.52863000147],[836195.2340000011,812555.58900000155],[836196.22400000039,812555.7340000011],[836197.20400000084,812555.93100000173],[836198.17300000042,812556.17800000124],[836199.12800000049,812556.47600000165],[836200.06600000057,812556.82200000249],[836200.98500000127,812557.21600000188],[836201.90800000075,812557.60100000165],[836202.8610000005,812557.90400000103],[836203.83700000122,812558.12100000121],[836204.82800000068,812558.25500000268],[836205.82800000068,812558.2920000013],[836206.82700000051,812558.24500000104],[836207.8180000009,812558.11000000127],[836208.79400000069,812557.89300000109],[836209.74400000088,812557.5810000021],[836210.66500000097,812557.19100000151],[836211.54800000042,812556.72000000253],[836212.38500000071,812556.17400000244],[836213.17100000102,812555.55600000173],[836213.89900000114,812554.87100000121],[836214.56400000118,812554.12300000153],[836215.16000000108,812553.32100000232],[836215.68300000113,812552.46800000221],[836216.12900000066,812551.57300000265],[836216.49300000072,812550.64200000092],[836216.77400000114,812549.68200000189],[836216.96900000051,812548.70100000128],[836217.07600000128,812547.70700000226],[836217.09500000067,812546.70700000226],[836217.02600000054,812545.70900000259],[836216.86800000072,812544.722000001],[836212.91500000097,812524.82300000265],[836212.77900000103,812524.1240000017],[836212.63700000104,812523.13400000148],[836212.59709000122,812522.61044000089],[836212.56100000069,812522.13700000197],[836212.55300000124,812521.13700000197],[836212.61000000127,812520.13900000229],[836212.73500000127,812519.14600000158],[836212.92500000075,812518.16500000097],[836213.18000000063,812517.19800000265],[836213.4980000006,812516.25000000186],[836213.88000000082,812515.32500000112],[836214.32200000063,812514.42800000124],[836214.82300000079,812513.56300000101],[836215.38000000082,812512.73300000094],[836215.99100000039,812511.94100000151],[836216.65400000103,812511.19300000183],[836217.36600000039,812510.49000000209],[836218.12200000044,812509.83600000106],[836218.92000000086,812509.2340000011],[836219.75700000115,812508.68600000255],[836220.62900000066,812508.19500000216],[836221.53100000042,812507.76400000229],[836222.50700000115,812507.37700000219],[836223.06900000107,812508.93600000255],[836224.87700000126,812508.57700000145],[836223.23700000066,812500.32200000249],[836223.07600000128,812499.35200000182],[836223.09400000051,812498.35200000182],[836223.31100000069,812497.37600000203],[836223.71700000111,812496.46200000122],[836224.29800000042,812495.64800000191],[836225.02800000086,812494.96500000171],[836225.86700000055,812494.45000000112],[836225.86700000055,812494.44900000095],[836242.8880000012,812486.15500000119],[836243.95300000068,812485.89800000191],[836245.03600000124,812486.0380000025],[836246.0150000006,812486.57500000112],[836246.72500000056,812487.41900000162],[836247.08000000101,812488.44700000249],[836248.80300000124,812497.11900000274],[836249.98000000045,812496.88500000164],[836260.46600000095,812549.65300000273],[836259.24300000072,812549.89600000158],[836259.25900000054,812549.99700000137],[836259.35000000056,812551.25400000252],[836259.33500000089,812552.5110000018],[836259.21400000062,812553.76700000092],[836258.98900000099,812555.00400000252],[836258.66100000124,812556.2210000027],[836258.55700000096,812556.50800000131],[836260.02600000054,812557.18500000238],[836260.05300000124,812557.45200000145],[836260.15400000103,812558.49700000137],[836260.24500000104,812559.54300000146],[836260.32700000051,812560.59000000171],[836260.39900000114,812561.63700000197],[836260.46100000106,812562.68500000238],[836260.51400000043,812563.7340000011],[836260.55800000113,812564.78300000168],[836260.59100000095,812565.83300000243],[836260.61600000039,812566.88200000115],[836260.63000000082,812567.93200000189],[836260.63500000071,812568.98200000264],[836260.63100000098,812570.03200000152],[836260.61600000039,812571.08200000226]]]},"properties":{"OBJECTID":195703,"Shape_Length":401.95303883379444,"Shape_Area":7276.7553635843196,"GeoRefNo":"3620912586","DateCreate":1456358400000,"BuildingBlockType":"Podium","BuildingCSUID":"3620912586P20160225","BuildingID":1810149443,"Status":"Active","BuildingNameEN":"Podium","BuildingNameTC":"平台","BaseHeight":18,"TopHeight":37.200000000000003,"Storeys":5,"StoreysInBasement":1,"DateStamp":1599609600000}},{"type":"Feature","id":241523,"geometry":{"type":"Polygon","coordinates":[[[834141.55273000058,819946.78609000146],[834142.33342000097,819943.65493000112],[834139.66700000037,819941.49570000172],[834145.41408000048,819934.39864000119],[834146.67736000102,819932.83862000145],[834147.58667000104,819931.71572000161],[834150.01997000072,819932.55680000223],[834170.04365000036,819937.54930000193],[834169.42065000068,819940.04780000262],[834176.92164000124,819941.91798000224],[834176.2218666746,819953.34747646982],[834175.20214000065,819964.75288000144],[834160.19155000057,819967.39960000105],[834151.51003000047,819968.93034000136],[834149.89165000059,819959.75200000219],[834147.88375000097,819948.3646000009],[834141.55273000058,819946.78609000146]]]},"properties":{"OBJECTID":241523,"Shape_Length":127.12925412730785,"Shape_Area":916.56420519483777,"GeoRefNo":"3415819951","DateCreate":1329955200000,"BuildingBlockType":"Tower","BuildingCSUID":"3415819951T20120223","BuildingID":1810079785,"Status":"Active","BuildingNameEN":"Imperial Seacoast","BuildingNameTC":"觀海鑽","BaseHeight":24.5,"TopHeight":148,"Storeys":40,"StoreysInBasement":null,"DateStamp":1599609600000}},{"type":"Feature","id":258252,"geometry":{"type":"Polygon","coordinates":[[[834176.9216300007,819941.9179700017],[834176.22186181077,819953.34747140447],[834175.20214000065,819964.75288000144],[834175.00435000099,819969.12598000094],[834151.51003000047,819968.93034000136],[834147.88375000097,819948.3646000009],[834138.01995000057,819948.56500000134],[834138.01995000057,819963.06500000134],[834118.73615000118,819963.06500000134],[834114.37455000076,819966.46070000157],[834107.72605000064,819966.46070000157],[834102.6916500004,819963.06500000134],[834092.36715000123,819963.06500000134],[834085.48045000061,819966.06500000134],[834080.35415000096,819966.06500000134],[834074.58349000104,819962.1726400014],[834068.08655000106,819957.79040000215],[834064.04835000075,819960.72430000268],[834065.81165000051,819963.15140000172],[834057.94755000062,819968.86500000209],[834052.8436500011,819968.86500000209],[834035.25805000123,819968.86500000209],[834035.25805000123,819956.33320000209],[834035.13805000111,819904.43000000156],[834035.13805000111,819903.60500000231],[834036.23805000074,819903.60500000231],[834036.23805000074,819902.11000000127],[834037.92805000115,819902.11000000127],[834037.92805000115,819901.58000000194],[834042.95795000065,819901.58000000194],[834042.95795000065,819900.09091000259],[834042.95795000065,819898.48000000231],[834046.55805000104,819898.48000000231],[834066.70805000048,819898.48000000231],[834076.10805000085,819898.48000000231],[834076.80805000104,819898.48000000231],[834115.41149000078,819898.48000000231],[834117.03995000105,819898.48000000231],[834136.23995000124,819898.48000000231],[834136.23995000124,819912.18000000156],[834136.23995000124,819913.88000000268],[834136.23995000124,819924.98000000231],[834136.23995000124,819925.32550000213],[834141.36005000118,819929.47161000222],[834144.28746197827,819931.53786271077],[834147.46153218392,819933.20051705488],[834150.8269500006,819934.43060000241],[834153.53165000118,819935.10500000231],[834152.8054500008,819938.01790000126],[834154.34605000075,819938.40200000256],[834154.85405000113,819936.36440000124],[834169.42065000068,819940.04780000262],[834176.9216300007,819941.9179700017]]]},"properties":{"OBJECTID":258252,"Shape_Length":459.62922828225368,"Shape_Area":7766.325034038081,"GeoRefNo":"3410619932","DateCreate":1329955200000,"BuildingBlockType":"Podium","BuildingCSUID":"3410619932P20120223","BuildingID":1810079787,"Status":"Active","BuildingNameEN":null,"BuildingNameTC":null,"BaseHeight":5.2999999999999998,"TopHeight":24.5,"Storeys":5,"StoreysInBasement":3,"DateStamp":1599609600000}},{"type":"Feature","id":313076,"geometry":{"type":"Polygon","coordinates":[[[833561.42849000078,821243.56928000227],[833557.34837000072,821246.49777000211],[833554.27615000121,821250.61596000195],[833547.70553000085,821245.57928000204],[833543.16446000058,821241.96265000105],[833539.77091000043,821239.39860000089],[833533.9681000011,821232.07656000182],[833533.39122000057,821231.3439300023],[833532.23409000039,821232.82252000272],[833529.00547000114,821230.30831000209],[833532.27095000073,821225.74775000103],[833508.87395000085,821207.51055000164],[833509.76251000073,821206.37062000111],[833497.91677000094,821191.57368000224],[833493.3799500009,821193.59975000098],[833487.81795000099,821181.14525000192],[833485.65855000075,821182.10965000093],[833483.5116500007,821177.30225000158],[833490.65195000079,821174.11345000193],[833492.58315000124,821173.25105000101],[833493.22022000048,821174.67761000246],[833499.4600400012,821172.18042000197],[833502.52850000095,821170.78820000216],[833504.49082238413,821169.25310790457],[833506.20611048164,821167.44617580122],[833507.63708000071,821165.40668000095],[833512.39869000111,821159.265420001],[833512.90976000112,821158.56469000131],[833511.94555000123,821157.81315000169],[833513.24585000053,821156.14505000226],[833517.38224000111,821150.83835000172],[833518.04105000105,821149.99315000139],[833530.33506000042,821159.57594000176],[833536.17216000054,821156.89436000213],[833534.38622000068,821152.72716000117],[833531.56840000115,821150.30622000247],[833535.89571000077,821148.40060000122],[833534.39735000115,821145.04545000196],[833541.53765000124,821141.85675000213],[833543.46885000076,821140.99425000139],[833544.03565000091,821142.2634500023],[833559.38685000036,821135.4079500027],[833565.03385000117,821130.98575000092],[833564.37065000087,821130.46875000186],[833565.67085000128,821128.80065000243],[833570.46615000069,821122.64875000156],[833572.75225000083,821124.43075000122],[833581.72215000074,821135.88505000249],[833577.22365000099,821141.65625000186],[833602.86805000063,821174.40325000137],[833616.40955000091,821191.93710000254],[833617.00523000117,821191.46688000113],[833621.18131000083,821196.75724000111],[833615.77841000073,821201.02215000242],[833616.78851000126,821202.32222000137],[833613.94892000128,821204.56318000145],[833610.3520500008,821199.92809000239],[833609.12439000048,821200.9017600026],[833611.668490001,821204.20675000176],[833604.34861000068,821209.94602000155],[833593.92266000062,821217.99998000264],[833588.9952000007,821221.95050000213],[833583.92277000099,821225.9492200017],[833582.28089194174,821228.39333607838],[833580.3101128405,821230.58091389225],[833578.0499843182,821232.46805088269],[833575.54586495773,821234.01687404432],[833572.84801000077,821235.19630000181],[833572.69838000089,821234.74421000108],[833561.42849000078,821243.56928000227]]]},"properties":{"OBJECTID":313076,"Shape_Length":444.76626583059772,"Shape_Area":8606.9859222978976,"GeoRefNo":"3351521183","DateCreate":1516579200000,"BuildingBlockType":"Podium","BuildingCSUID":"3351521183P20180122","BuildingID":1810171022,"Status":"Active","BuildingNameEN":"Market In","BuildingNameTC":"海達街市","BaseHeight":6.0999999999999996,"TopHeight":14.1,"Storeys":null,"StoreysInBasement":null,"DateStamp":1622764800000}}]}