{
  "type": "Feature",
  "geometry": {
    "type": "Polygon",
    "coordinates": [
      [
        [
          114.0983840726,
          22.4485291188
        ],
        [
          114.0983841098,
          22.4485291253
        ],
        [
          114.0983936998,
          22.448484677
        ],
        [
          114.0983998608,
          22.4484857608
        ],
        [
          114.0984383473,
          22.4484929046
        ],
        [
          114.0984502855,
          22.448495466
        ],
        [
          114.0984400883,
          22.4485412002
        ],
        [
          114.0983840726,
          22.4485291188
        ]
      ]
    ]
  },
  "properties": {
    "OBJECTID": 4795,
    "Shape_Length": 22.061564848060616,
    "Shape_Area": 30.322539078384974,
    "GeoRefNo": "2819134343",
    "DateCreate": "20080908",
    "BuildingBlockType": "Open-sided Structure",
    "BuildingCSUID": "2819134343T20080908",
    "BuildingID": 1105725467,
    "Status": "Active",
    "BuildingNameEN": null,
    "BuildingNameTC": null,
    "BaseHeight": null,
    "TopHeight": null,
    "Storeys": null,
    "StoreysInBasement": null,
    "DateStamp": "20101009"
  }
}
