{"coordinateFrame":"viewer x=East-834500,z=816500-North,metres","features":[{"geometry":{"coordinates":[[[1046.8037109375,-2090.177734375],[1047.25,-2092.0029296875],[1046.4274847740617,-2092.2034276408476],[1046.4199218755607,-2092.205273437363],[1046.201171875,-2092.2587890625],[1045.705078125,-2092.3798828125],[1045.236328125,-2092.494140625],[1045.223738386811,-2092.4971381817118],[1045.2080078125,-2092.5009765625],[1045.1943359375,-2092.50390625],[1045.1836062434108,-2092.4597779065734],[1043.0986328125,-2092.9736328125],[1039.3330078125,-2093.900390625],[1039.3227027145438,-2093.858457899215],[1038.326171875,-2094.0966796875],[1038.34375,-2094.173828125],[1034.8057545279025,-2095.0361954424006],[1034.7822265625,-2095.0419921875],[1034.6732763948087,-2095.0684862729436],[1033.849107769865,-2095.2693729308785],[1033.8486328125,-2095.26953125],[1033.8453534606847,-2095.2702880234956],[1033.81640625,-2095.27734375],[1033.916015625,-2095.7109375],[1033.9267578125,-2095.759765625],[1031.7626953125,-2096.29296875],[1031.578125,-2096.337890625],[1031.4580078125,-2095.8515625],[1030.7880859375,-2093.1318359375],[1030.7763671875,-2093.0830078125],[1030.4853515625,-2091.8994140625],[1029.966796875,-2089.7939453125],[1029.6875,-2089.8623046875],[1029.1728515625,-2087.76953125],[1029.720703125,-2087.634765625],[1029.7001953125,-2087.5517578125],[1029.6240234375,-2087.2421875],[1031.814453125,-2086.703125],[1033.3232421875,-2086.3330078125],[1036.3232421875,-2085.5947265625],[1038.8984375,-2085.060546875],[1038.9228515625,-2085.1572265625],[1043.1541225095793,-2084.1155789805016],[1043.130859375,-2084.0185546875],[1045.1748046875,-2083.515625],[1045.2138671875,-2083.6748046875],[1046.2333984375,-2087.8447265625],[1046.8037109375,-2090.177734375]],[[1038.3017578125,-2094.18359375],[1036.5595703125,-2094.6083984375],[1036.466796875,-2094.630859375],[1036.18359375,-2094.7001953125],[1038.34375,-2094.173828125],[1038.3017578125,-2094.18359375]],[[1033.832965353257,-2095.273097826088],[1033.822265625,-2095.275390625],[1033.81640625,-2095.27734375],[1033.832965353257,-2095.273097826088]]],"type":"Polygon"},"properties":{"role":"complete-FBX-projection"},"type":"Feature"},{"geometry":{"coordinates":[[[1033.957,-2095.758],[1032.444,-2096.128],[1031.929,-2096.254],[1031.899,-2096.129],[1031.356,-2093.915],[1033.146,-2093.399],[1032.845,-2092.158],[1032.694,-2091.536],[1032.117,-2089.163],[1030.3,-2089.658],[1029.816,-2087.713],[1036.35,-2086.03],[1042.93,-2084.386],[1043.97,-2088.633],[1044.833,-2092.158],[1045.053,-2093.054],[1033.957,-2095.758]]],"type":"Polygon"},"properties":{"role":"full-current-target"},"type":"Feature"},{"geometry":{"coordinates":[[[[1032.444,-2096.128],[1031.929,-2096.254],[1031.9285452032136,-2096.252105013389],[1033.9267578125,-2095.759765625],[1033.916015625,-2095.7109375],[1033.81640625,-2095.27734375],[1033.8453534606847,-2095.2702880234956],[1033.8486328125,-2095.26953125],[1033.849107769865,-2095.2693729308785],[1034.6732763948087,-2095.0684862729436],[1034.7822265625,-2095.0419921875],[1034.8057545279025,-2095.0361954424006],[1038.34375,-2094.173828125],[1038.326171875,-2094.0966796875],[1039.3227027145438,-2093.858457899215],[1039.3330078125,-2093.900390625],[1043.0986328125,-2092.9736328125],[1044.9228750947066,-2092.5240367493498],[1045.053,-2093.054],[1033.957,-2095.758],[1032.444,-2096.128]]],[[[1036.18359375,-2094.7001953125],[1036.466796875,-2094.630859375],[1036.5595703125,-2094.6083984375],[1038.3017578125,-2094.18359375],[1038.34375,-2094.173828125],[1036.18359375,-2094.7001953125]]],[[[1033.822265625,-2095.275390625],[1033.832965353257,-2095.273097826088],[1033.81640625,-2095.27734375],[1033.822265625,-2095.275390625]]]],"type":"MultiPolygon"},"properties":{"role":"uncovered-target"},"type":"Feature"},{"geometry":{"coordinates":[[[1047.25,-2092.0029296875],[1046.4274847740617,-2092.2034276408476],[1046.4199218755607,-2092.205273437363],[1046.201171875,-2092.2587890625],[1045.705078125,-2092.3798828125],[1045.236328125,-2092.494140625],[1045.223738386811,-2092.4971381817118],[1045.2080078125,-2092.5009765625],[1045.1943359375,-2092.50390625],[1045.1836062434108,-2092.4597779065734],[1044.9228750947066,-2092.5240367493498],[1044.833,-2092.158],[1043.97,-2088.633],[1042.93,-2084.386],[1036.35,-2086.03],[1029.816,-2087.713],[1030.3,-2089.658],[1032.117,-2089.163],[1032.694,-2091.536],[1032.845,-2092.158],[1033.146,-2093.399],[1031.356,-2093.915],[1031.899,-2096.129],[1031.9285452032136,-2096.252105013389],[1031.7626953125,-2096.29296875],[1031.578125,-2096.337890625],[1031.4580078125,-2095.8515625],[1030.7880859375,-2093.1318359375],[1030.7763671875,-2093.0830078125],[1030.4853515625,-2091.8994140625],[1029.966796875,-2089.7939453125],[1029.6875,-2089.8623046875],[1029.1728515625,-2087.76953125],[1029.720703125,-2087.634765625],[1029.7001953125,-2087.5517578125],[1029.6240234375,-2087.2421875],[1031.814453125,-2086.703125],[1033.3232421875,-2086.3330078125],[1036.3232421875,-2085.5947265625],[1038.8984375,-2085.060546875],[1038.9228515625,-2085.1572265625],[1043.1541225095793,-2084.1155789805016],[1043.130859375,-2084.0185546875],[1045.1748046875,-2083.515625],[1045.2138671875,-2083.6748046875],[1046.2333984375,-2087.8447265625],[1046.8037109375,-2090.177734375],[1047.25,-2092.0029296875]]],"type":"Polygon"},"properties":{"role":"source-excess"},"type":"Feature"},{"geometry":{"coordinates":[[[1036.35,-2086.03],[1036.2461009899098,-2085.6137105290945],[1036.3232421875,-2085.5947265625],[1038.8984375,-2085.060546875],[1038.9228515625,-2085.1572265625],[1042.8708646636235,-2084.1853109485114],[1042.93,-2084.386],[1036.35,-2086.03]]],"type":"Polygon"},"properties":{"role":"unrelated-overlap"},"type":"Feature"},{"geometry":{"coordinates":[],"type":"Polygon"},"properties":{"role":"FBX-glTF-symmetric-difference"},"type":"Feature"}],"type":"FeatureCollection"}
